ModelForces
version=1
nRows=51
nColumns=98
inDegrees=no

This file contains the forces exerted on a model during a simulation.

A force is a generalized force, meaning that it can be either a force (N) or a torque (Nm).

Units are S.I. units (second, meters, Newtons, ...)
If the header above contains a line with 'inDegrees', this indicates whether rotational values are in degrees (yes) or radians (no).

endheader
time	glut_med1_r	glut_med2_r	glut_med3_r	glut_min1_r	glut_min2_r	glut_min3_r	semimem_r	semiten_r	bifemlh_r	bifemsh_r	sar_r	add_long_r	add_brev_r	add_mag1_r	add_mag2_r	add_mag3_r	tfl_r	pect_r	grac_r	glut_max1_r	glut_max2_r	glut_max3_r	iliacus_r	psoas_r	quad_fem_r	gem_r	peri_r	rect_fem_r	vas_med_r	vas_int_r	vas_lat_r	med_gas_r	soleus_r	tib_post_r	flex_dig_r	flex_hal_r	tib_ant_r	per_brev_r	per_long_r	per_tert_r	ext_dig_r	ext_hal_r	glut_med1_l	glut_med2_l	glut_med3_l	glut_min1_l	glut_min2_l	glut_min3_l	semimem_l	semiten_l	bifemlh_l	bifemsh_l	sar_l	add_long_l	add_brev_l	add_mag1_l	add_mag2_l	add_mag3_l	tfl_l	pect_l	grac_l	glut_max1_l	glut_max2_l	glut_max3_l	iliacus_l	psoas_l	quad_fem_l	gem_l	peri_l	rect_fem_l	vas_med_l	vas_int_l	vas_lat_l	med_gas_l	lat_gas_l	soleus_l	tib_post_l	flex_dig_l	flex_hal_l	tib_ant_l	per_brev_l	per_long_l	per_tert_l	ext_dig_l	ext_hal_l	ercspn_r	ercspn_l	intobl_r	intobl_l	extobl_r	extobl_l	normal_residual_FX	normal_residual_FY	normal_residual_FZ	normal_residual_MX	normal_residual_MY	normal_residual_MZ
      0.0000000000	      9.1352223749	     42.5616122925	    104.8113424387	      3.6790080474	      8.6802552782	     18.8355591662	     12.9005717853	      4.1129207345	      8.9767958806	     93.4041595031	     16.6343417240	      6.2795164268	      4.2980714862	      3.8168807164	      3.4361241944	      4.8867444183	     23.7024858912	      2.6786766617	      1.6292399412	     18.1487631400	      8.2721412383	      5.5280111431	    182.9986537841	    219.3021836797	      5.1745307239	      6.4601919211	     54.5836155535	    125.5466506276	     12.9553492518	     13.6649775274	     18.7264636946	     15.7949650531	     35.5141709967	     15.9179971557	      4.6748165870	      4.0334082177	     90.3503651364	     16.0335765677	     57.3585971395	      5.7210309995	     15.9398805303	      1.8359908801	    123.9018481156	      5.7383022870	      6.5341984062	      8.6776357148	      2.8727207165	      3.2384370766	    281.3137602770	     27.5138976570	     57.0348738832	      8.3773230651	      1.5770525645	     20.7859581274	     22.8192356890	      9.6815319832	     13.8046873765	     57.4112350683	      2.3498026659	      3.2644609762	      1.6421229928	      5.7361612736	      8.1981641976	      5.5313791499	     10.8008156865	     11.1805186743	      3.8153647345	      1.6457720009	      4.4448402958	     11.7166033614	     42.6623541093	     47.8708291717	     85.7341178431	     15.6073895959	      6.8545558093	     35.5205508312	     15.9308451384	      4.2268140612	      3.8913308946	     81.8143489459	     13.4628144894	     47.4839180352	      4.4273934741	     17.6006272402	      1.9859375879	     25.0831740445	     25.0843977787	     51.0143804503	     47.6101945060	     53.8687631227	     60.0596349106	      1.3286413633	    758.0316189451	     11.4014827323	    -11.2004447054	     -3.8053007146	    -16.0808479960
      0.0200000000	     11.8257564116	     41.7585863430	     92.8487566067	      3.4021993621	      8.2293682153	     16.6090034250	     12.9124951893	      4.1187741372	      8.9857175264	     79.6042372463	     12.3872725821	      6.2812902923	      4.2998907223	      3.8186299618	      3.4378858482	      4.8890296037	     18.0161868631	      2.6813106717	      1.6320188112	     25.5504036977	      8.4124358195	      5.5309217658	    122.3249252722	    149.4584282629	      4.0922447646	      4.9166676343	     44.7905143362	     66.3027759325	     12.9596694364	     13.6694365206	     18.7307476589	     15.6277811626	     35.5119646584	     15.9145747091	      3.9630609707	      3.4937314171	     96.2989390478	     17.0031880296	     60.9928837938	      6.1394437729	     17.3745721983	      1.6822529310	     82.6254952250	      6.1675969053	      6.6002569403	     11.4108128153	      8.4472715613	      3.9031236695	     12.9321578247	      4.1323603474	      8.9869050824	     51.0746988384	      4.7694773919	      6.3614763046	      4.3176557566	      3.8302827500	      3.4476942555	      4.8976761137	     11.6461813612	      2.7574921353	      1.6596264206	      5.7569848225	      8.2064052688	      5.5279421608	    170.9176118556	    176.0846802693	      3.8396422433	      1.6717355329	      4.5131074910	     32.9565272849	     12.9727595138	     13.6827041583	     18.7434911795	     15.6290385035	      6.8705387933	     35.5189569813	     15.9263198208	      4.2581793071	      3.6723128217	     82.1958959928	     14.1022788600	     50.4945255189	      4.5760235882	     13.7339049809	      1.6905566792	     25.0659668073	     25.1143803780	     40.3637461228	     56.6787462003	     31.7799919062	     80.6037360813	     38.8598621278	    732.2437947208	    -19.0165825599	     -8.9705849332	    -12.1665523841	      4.2044306250
      0.0400000000	      9.2261386624	     25.9887885076	     62.0728921486	      3.1766233598	      5.0620274742	     10.2582390012	     12.9461431448	      4.1314055383	      9.0091847967	     56.4754271867	      7.6269057244	      6.2876126285	      4.3053889940	      3.8236972308	      3.4425034894	      4.8944061783	     10.4357351148	      2.6884887094	      1.6372976459	     20.0071735142	     10.7807575676	      5.5382810972	     71.7974998465	     88.9787682912	      5.4644573685	      3.5566558080	     29.5252383963	     20.8215775198	     12.9703229725	     13.6801785953	     18.7413368241	     15.6134425570	     35.5113300294	     15.9137522252	      4.0859954478	      3.6289539460	     98.7545872762	     17.0515814965	     60.8541240907	      6.3006387022	     19.2544399198	      1.7770972622	     68.7088883604	     17.5371927696	     13.2595994552	     15.4838079760	     14.6320596505	     13.2502746891	     12.8988910266	      4.1141526963	      8.9722910228	    108.1680122361	     11.3384558209	     12.4399855589	      4.3098797389	      3.8245972456	      3.4409289145	      4.8882715496	     24.4159813766	      4.4514318774	      1.9185264665	      5.7446578091	      8.1985181573	      5.5244395621	    402.4967780289	    424.7668055753	      3.9721890552	      1.7817804256	     12.2988848789	    160.2325570761	     12.9569003511	     13.6668710259	     18.7267317000	     15.6895517604	      6.9075278981	     35.5162380200	     15.9220147660	      4.7181171973	      4.0007468591	     87.4680417712	     14.9073602466	     53.1904311863	      5.0744681906	     14.4122969407	      1.7660537418	     25.0630843255	     25.1314270724	     35.7219892977	     58.6647821235	     24.2654771790	     85.2172808645	     70.9212832181	    717.1460042236	    -31.8233848893	     -5.3415935609	    -16.4833743593	     21.6101823678
      0.0600000000	      8.2190421105	      5.7758883802	     11.6633695012	      2.7237702622	      2.8770635397	      3.2956445774	     19.7473926146	      5.0033150676	     15.1636471374	     38.5318448421	      2.9566373954	      7.8303860185	      4.7091258956	      4.3362860455	      3.5810296055	      4.9377094411	      2.3874860210	      3.2253333117	      2.0767819997	      6.1021085469	      9.7481772532	      6.0348847241	     36.1463809072	     44.2825574272	     21.1264857396	      3.2663215724	     11.0108264754	     11.8015043532	     12.9753273316	     13.6853472510	     18.7462467542	     15.6092372388	     35.5114005359	     15.9145190019	      4.0024312585	      3.6040910727	     97.9878760240	     16.1108940589	     56.8712218390	      6.1225986840	     19.5628315381	      1.7935963134	     17.4596111331	      8.8729708000	     21.5679594343	     12.8404440735	     12.9304978261	     13.3287213018	     12.8944595519	      4.1110999128	      8.9700883512	    129.3749245659	     14.0514879291	     49.8910669101	      4.3129635040	      3.8258013566	      3.4405678914	      4.8869441895	     27.5753921036	      7.9448218418	      2.8934707164	      5.7423264709	      8.1972860105	      5.5240059101	    501.7778923678	    531.8268768985	     10.4388719518	      2.1877506826	     22.3422100360	    232.0870046144	     12.9547575752	     13.6647144942	     18.7244127861	     15.6790358134	      6.9007271503	     35.5126276070	     15.9171746229	      4.4096313929	      3.7810649092	     99.6198211259	     15.6832239388	     54.9726838494	      5.8087135438	     18.1940487094	      1.7912411128	     25.0733783713	     25.1039606362	     41.2808848248	     53.3156575973	     39.0561151402	     70.6462136446	     92.0034975165	    717.7101560691	    -19.4185300555	     -0.3024708651	    -15.2291163889	     31.9613708973
      0.0800000000	      8.2126745508	      5.7680546729	      6.6759707093	      2.7227911226	      2.8777754707	      3.2714437880	     14.3013292845	      4.6254383290	     19.3651707884	     23.5029140043	      1.9114870986	     39.5935249005	     15.0769677910	     14.9153151170	      6.3104792041	      4.9647328570	      2.3653993528	      4.7300810671	      2.6855241563	      5.8193876033	      8.5929405722	     18.0187805974	     31.9213416911	     38.4609229869	     30.1736264157	      3.4561674530	      6.3824379468	     11.8519098117	     13.0103257017	     13.7205565670	     18.7821433616	     15.6072903729	     35.5130459864	     15.9176450195	      3.5990824069	      3.3909667915	     94.7263669837	     14.6517396367	     51.0443669698	      5.7075077303	     18.1998448990	      1.6936331576	      8.2130919800	      5.7774720904	     24.2587661631	      2.8068987137	      3.1678339807	      5.8100332721	     12.8935632651	      4.1117691052	      8.9707465675	    117.0956916754	     13.2416913158	    123.8847018580	      4.7694875471	      3.8816696170	      3.4495882711	      4.8878533321	     20.6193851328	     14.2974050398	      6.8192250801	      5.7419316704	      8.1979655840	      5.5252742958	    508.3761596200	    542.8826566840	     44.2693401700	      5.3720316865	     33.5306813329	    274.2220804985	     12.9571423435	     13.6670166683	     18.7267292398	     15.6204712840	      6.8633213144	     35.5089273861	     15.9118391960	      3.5615875991	      3.3573879166	    117.2196832299	     16.7497641875	     57.3261563363	      6.8424494683	     23.7478841184	      1.7116682634	     25.1034007248	     25.0714108560	     55.4607437106	     44.9115541220	     71.4987924104	     45.0759330526	    103.5663770679	    730.5095634587	     10.1529918297	      5.7592168840	    -10.4412617588	     37.3234973541
      0.1000000000	      8.2088697204	      5.7606595138	      6.6784394904	      2.7188365503	      2.8726703818	      3.2648864735	     13.0028421690	      4.4971212997	     11.2874590905	     14.2672049362	      2.1177765671	     57.9837174446	     22.6223454662	     21.1656784653	     10.1784089647	      5.0993213539	      2.3621065843	      6.5825995571	      3.2295171999	      5.8233150470	      8.8947395783	     23.8524956095	     38.8210402858	     45.2809900537	     34.4224074538	      3.7756050890	      6.2806012742	     17.2114533503	     13.1415893111	     13.8513054129	     18.9108462309	     15.6064392001	     35.5144973286	     15.9205440067	      4.1503825130	      3.7443739857	     89.1061529447	     13.3671587811	     46.0258032211	      5.2519353540	     17.3599870117	      1.8580378786	      8.2023566438	      5.7574636738	     32.5462427926	      2.7220189802	      2.8854741189	      3.6031522391	     12.8936995970	      4.1131630165	      8.9724381664	     93.2884887531	     11.6271130256	    166.4251068566	     26.9221984353	     19.0333166187	      3.5338873485	      4.8894928028	     13.2644024730	     17.7928099835	      9.8027657295	      5.7435621103	      8.2000823896	      5.5281787459	    462.5072722912	    498.6156218302	     71.4296979241	      8.7460466877	     43.6698675460	    301.6894389636	     12.9627339340	     13.6724063316	     18.7323628133	     15.6038798226	      6.8508614937	     35.5058769150	     15.9070997713	      3.8093391932	      3.4678630768	    133.8447303409	     18.1479610759	     61.0067008281	      7.9777873434	     29.6918044654	      1.9728677197	     25.1917732456	     25.0529978418	     71.5002701006	     37.8012288491	    107.1558666096	     20.4895865035	    101.6041431025	    746.1791068326	     40.6016624488	     11.4026862512	     -5.1501677805	     37.3795272971
      0.1200000000	      8.2084022447	      5.7592539694	      6.8054944902	      2.7148056296	      2.8706827217	      3.2798397771	     12.9256165240	      4.5769907847	     10.1822989046	     15.0736994677	      2.4820563783	     63.2831094272	     23.8663757452	     21.2968868024	     10.0992133582	      5.3135705264	      2.3954156639	      7.2875121333	      3.4441905974	      5.8954198025	      8.9924925195	     19.2459020728	     49.2729345812	     55.8117099763	     33.0701532887	      3.8182487703	      6.6948713357	     29.0961786271	     13.6102193427	     14.3236430684	     19.4027956155	     15.6107069106	     35.5137290796	     15.9272931601	      4.6921896365	      4.2206130545	     83.5641311430	     12.7510032095	     42.9096013256	      4.9956219787	     16.3936375294	      2.0772604725	      8.1994876337	      5.7523300291	     41.9869488081	      2.7138466844	      2.8714567507	      3.4512390196	     12.8945947030	      4.1147234073	      8.9749482494	     63.3700015254	      9.8931069893	    175.1265915532	     38.5277212146	     31.9217743571	      6.9708441122	      4.8918966092	      7.6911180217	     18.3135175309	     10.5279201637	      5.7474090548	      8.2046470128	      5.5362628059	    390.2276534415	    425.7369540479	     88.2833010299	     10.9921866158	     50.5377235770	    319.5507484309	     12.9758949494	     13.6851156932	     18.7456015208	     15.5971202227	      6.8452166968	     35.5037405069	     15.9036983920	      4.1914250329	      3.6680369896	    144.4096932025	     19.1700951338	     63.6887156689	      8.8096990284	     32.3640146327	      2.2362678561	     29.5711779812	     25.0451005725	     77.8434371135	     30.0704329531	    132.5230957064	      9.9486276161	     85.7091867814	    754.7938189643	     58.5711064630	     14.3189198451	     -0.9318945235	     33.8789022764
      0.1400000000	      8.2104886803	      5.7629847506	      6.7530176173	      2.7205064428	      2.8732283032	      3.2718106075	     12.9651053199	      4.2667435840	      9.2394603160	     15.9238914720	      2.5262398752	     61.5178150497	     21.8461475064	     18.4488877935	      8.1134760554	      5.0317364964	      2.3928640527	      7.0137144669	      3.1392258193	      5.8392910186	      8.5291346364	     10.8993903929	     59.8711241048	     66.5835388369	     28.9910537371	      3.4258414876	      6.2335908854	     34.5065293936	     13.2838433439	     13.9941808628	     19.0560840374	     15.6134551613	     35.5180077338	     15.9288502697	      4.5311270455	      4.0623298043	     80.1509912819	     12.2719795617	     41.9031136169	      4.6896187091	     14.7904248920	      1.9621099874	      8.1985041642	      5.7508802126	     49.2975643041	      2.7111902477	      2.8661330859	      3.2979804727	     12.8959632950	      4.1160860997	      8.9788394397	     28.5365039690	      7.7028840540	    160.4436445826	     41.7817018949	     37.9321149304	     12.3984242836	      4.8959762963	      3.5295016206	     16.7108741039	      9.6249032094	      5.7555728806	      8.2170741966	      5.6299867770	    296.3441926745	    329.0017613539	     97.0840969126	     12.2058410890	     53.3676714578	    316.8459514995	     13.0618358479	     13.7673608684	     18.8285701615	     15.5956125372	      6.8442151554	     35.5041139806	     15.9041525630	      4.0563872661	      3.5403604754	    144.5710576674	     18.7674426873	     61.9501054004	      8.8580526390	     30.5867309241	      2.0757151902	     36.1365403640	     25.0458474179	     75.8867933511	     26.4752860140	    132.8482607452	      9.1633722856	     58.0078858450	    752.3416231978	     59.0471554605	     13.3604732913	      2.2747562166	     27.3859057097
      0.1600000000	      8.2170981120	      5.7668985922	      6.6588392683	      2.7253075495	      2.8795264172	      3.2745355750	     12.9672092630	      4.1890963384	      9.0892037846	     17.9391588158	      2.4180332902	     60.6554505518	     20.1872653416	     15.9052261086	      6.2052868833	      4.9461284636	      2.3953373905	      6.7119045609	      2.7716317207	      5.7975439226	      8.3032941004	      6.3411303027	     71.0655869492	     77.8353882829	     24.5797743286	      2.8541130107	      5.3192291653	     33.8033146450	     13.0467701553	     13.7568502551	     18.8173711673	     15.6149793966	     35.5198074173	     15.9289637156	      4.1546209129	      3.7494285473	     78.2438771671	     11.9646389381	     41.5159432103	      4.4223525231	     13.5708295153	      1.7753269791	      8.1985855389	      5.7511595381	     48.2249044816	      2.7106106219	      2.8650895683	      3.2691835463	     12.8975347716	      4.1171384935	      8.9832066080	      8.2932502342	      5.8458500837	    131.7960549923	     37.6731049232	     36.5562453426	     13.3429885584	      4.9008043895	      2.4484215474	     13.9311067362	      7.5532953804	      5.7664410117	      8.2456100713	     12.2158967281	    213.0062898626	    241.5862609941	     95.3172650942	     12.0641888065	     50.3612186646	    302.7588096214	     15.2848912873	     16.1792864994	     22.3944977343	     15.5957378129	      6.8443468291	     35.5053865971	     15.9063455518	      3.8775169882	      3.4417606710	    135.5696074536	     17.2928281353	     56.8382640157	      8.2077539443	     26.4431238867	      1.8015864127	     27.8513362948	     25.0542110305	     64.9858757771	     23.7018535421	    111.6520414932	      9.2604860481	     28.8001255228	    741.9981451815	     43.6523783451	     10.2518832925	      4.0041873818	     20.7978107212
      0.1800000000	      8.2200067650	      5.7673535388	      6.6767257692	      2.7234063290	      2.8806359900	      3.2867414791	     12.9591791802	      4.2073189488	      9.0837273714	     20.5749231567	      2.5579508238	     62.7348431635	     20.2971187549	     15.1662007380	      6.1508034225	      4.9569134630	      2.4647101400	      6.9210064014	      2.9161898582	      5.8037601392	      8.2982212036	      5.9841228473	     78.7478985766	     85.0233313085	     20.7366755839	      2.6599686790	      5.2085178164	     29.0568244815	     13.0693675907	     13.7792338102	     18.8394424778	     15.6179716908	     35.5189823161	     15.9278958407	      4.3271373812	      3.9153171116	     76.5995651824	     11.8650912248	     40.9683860504	      4.3482485973	     13.7790320622	      1.8613718397	      8.2000726971	      5.7542560938	     37.5176975961	      2.7119104691	      2.8667815714	      3.2779267685	     12.9006627741	      4.1196020563	      8.9892039694	      8.3236734672	      5.0384250726	     93.3632869623	     26.3743364658	     26.4647842203	      7.9403289233	      4.9057262722	      2.4831226565	     10.3369966014	      5.0554555184	      5.7860964496	      8.3221059392	     12.1631747136	    155.8855791851	    179.3697851323	     78.8473855390	     10.1584268281	     40.6992090849	    255.9174511329	     21.6092763934	     23.9322668453	     39.2304970225	     15.5967647457	      6.8452305146	     35.5068375607	     15.9088345065	      4.3160221977	      3.6588007345	    122.4166579998	     15.9816489555	     52.8957238771	      7.3485090464	     22.4124435414	      1.8529676809	     25.1872838296	     25.0701456579	     53.9287817436	     28.4579617484	     78.0782239537	     18.3315987342	      6.3170273704	    731.5288979564	     18.4447823861	      7.8316708889	      3.7145794585	     14.7381432416
      0.2000000000	      8.2214840166	      5.7696073686	      6.6061050928	      2.7338011063	      2.8859200220	      3.2759298034	     12.9783945970	      4.1734432252	      9.0472942116	     21.0986409157	      2.3281842711	     63.6909309038	     20.7236293228	     15.4316081818	      6.3432565707	      4.9381638176	      2.4192159422	      6.8541231982	      2.8945585933	      5.7774792688	      8.2480132849	      5.6941685197	     79.1142090550	     84.7896345267	     18.6856604536	      2.3374328540	      4.7577658506	     21.4447698263	     13.0254929301	     13.7357471969	     18.7979984281	     15.6182963129	     35.5215416722	     15.9319223751	      4.1142540623	      3.7292134115	     76.4702092687	     11.7899234942	     41.0168125429	      4.2476660291	     13.7542186353	      1.7649856598	      8.2066130036	      5.7663269742	     18.1679700557	      2.7191442610	      2.8761706300	      3.2847336415	     12.9054132301	      4.1217862028	      8.9904623091	      8.2222931209	      4.3963945254	     49.5392845302	     10.7341606076	      9.8566728224	      3.6369727319	      4.9054095280	      2.8101519821	      6.1437209927	      2.2987641578	      5.7843104852	      8.2645382601	      5.6376274483	    116.2693682710	    132.4487056582	     45.4046780786	      6.1682040438	     23.7799884321	    208.0581982731	     20.2209799267	     22.5152357631	     37.3084787004	     15.5990896582	      6.8473453155	     35.5092130508	     15.9122208877	      4.4018780107	      3.6525094331	    111.3292963738	     15.5503994075	     52.6540030845	      6.7087587848	     18.9750769284	      1.7330276065	     25.1232637868	     25.0958269438	     41.8876947765	     34.7569014063	     50.6002287080	     38.0488384374	     -5.8444833973	    727.1255207594	     -7.7460236560	      7.0320894829	      1.8235679435	      9.0098787397
      0.2200000000	      8.2270052407	      5.7734364009	      6.5962667589	      2.7379361526	      2.8907798168	      3.2789011248	     12.9977172999	      4.1879947618	      9.0620802056	     21.7083113109	      2.0150641626	     58.6558745716	     19.0106317847	     14.0930661509	      5.8782607332	      4.9445758827	      2.4014590573	      6.2164800749	      2.6992788238	      5.7758887499	      8.2423907854	      5.6118049079	     73.9547497056	     78.8026097650	     15.5016902096	      1.9785410366	      4.5861686379	     13.3068105415	     13.0153112777	     13.7255226667	     18.7883005757	     15.6174208717	     35.5210032230	     15.9308155223	      3.8190790263	      3.5078185334	     77.1658482741	     11.9834417336	     41.9075125098	      4.2282595349	     13.6585221221	      1.6938547218	     14.6134406888	      8.0669559807	     11.4258510335	      3.6125336869	      4.1909432345	      5.0522716221	     12.9109071272	      4.1221097315	      8.9856097709	     11.5792706125	      5.2083322692	      6.3479722470	      4.3254168989	      3.8349428535	      3.4505836094	      4.8998686639	     10.1061622534	      2.7508418284	      1.6465278739	      5.8073986437	      8.2354264252	      5.5378650940	    101.1110911152	    110.1458087916	      3.8802661837	      1.7741342761	      8.4185832821	    170.0878077577	     13.1085010975	     13.8156393430	     18.8971396952	     15.6016780961	      6.8495001609	     35.5105957948	     15.9138115906	      4.3057636792	      3.5298553655	    104.4870890468	     15.9095014865	     55.1982616595	      6.3652729141	     16.9565372536	      1.6773751728	     25.0854403946	     25.1191409794	     35.8354114296	     44.6214033758	     33.2838635523	     59.5753189409	     -9.1792448229	    730.3224078002	    -26.4000329964	      6.3454888564	     -0.3070797465	      3.4230496977
      0.2400000000	      8.2421215402	      5.7833050164	      6.5984871579	      2.7502941528	      2.9016619874	      3.2877076162	     14.2860129643	      4.5835745823	      9.3407863096	     32.0364122190	      1.8654172630	     46.3748843967	     14.5718313899	     10.3692891077	      4.6366909529	      4.9544495835	      2.4005329201	      4.9526025392	      2.6614691949	      5.7800185143	      8.2449019403	      5.5986100094	     63.1639865552	     66.6686846527	      9.5589856669	      1.7938780446	      4.5537789356	     11.8015025947	     12.9909152363	     13.7008833166	     18.7628552184	     15.6218591618	     35.5206798207	     15.9299722424	      3.7800046966	      3.4831416388	     77.9385739356	     12.3959135573	     43.6103876712	      4.2854840784	     13.8977703416	      1.6926726732	     60.5181691341	     23.9542726269	     23.8625627207	      7.6853376379	      8.6398178720	      9.7227016823	     12.9189094690	      4.1247393751	      8.9861848005	     44.0493870749	      7.2462812884	      6.3004563350	      4.3109635107	      3.8255371713	      3.4440367948	      4.8955793508	     14.3155836397	      2.7090238673	      1.6422161857	      5.8465380833	      8.2345059408	      5.5335337794	    107.7722549480	    118.0093168520	      3.8416016760	      1.7131122639	     11.3107434305	    126.8012705819	     12.9955691137	     13.7035288133	     18.7674016547	     15.6061433876	      6.8530727117	     35.5114599767	     15.9147102070	      4.2102690749	      3.5027333233	    101.2916635655	     16.4034338595	     57.8208804173	      6.1817949994	     16.7770302438	      1.6781464069	     25.0672793661	     25.1273141179	     35.4530003142	     55.1427974999	     26.2468985564	     78.2367469188	     -7.8760422040	    738.7249219484	    -33.3143049924	      3.8804963021	     -1.5238836246	     -1.7902898681
      0.2600000000	      8.3951683462	      5.7951581260	      6.5805082465	      3.0324912736	      3.0174472591	      3.3173585074	     26.5819070842	      5.4484368849	      9.6282734715	     32.0226459964	      1.9467870574	     28.2368006764	      7.4043948343	      4.7191192842	      3.7818271868	      4.9820104650	      2.6371758251	      3.8219571901	      2.1942440493	      5.7749756720	      8.2359598251	      5.5689366775	     57.5861044548	     58.6518890125	      3.9331939768	      1.7190440262	      4.5061162992	     11.7775324908	     12.9858233563	     13.6957749104	     18.7585023854	     15.6215940498	     35.5203531822	     15.9290782744	      4.0941233665	      3.7195079197	     78.2233976290	     12.8798504160	     45.6043593479	      4.3735364680	     14.5897144333	      1.7598559815	     67.4038727852	     29.5372573696	     33.0679255995	      8.4504850672	      9.9202689266	     11.7641285583	     12.9274544102	      4.1273865765	      8.9876987159	     70.7864048705	      8.9175902840	      6.2928375268	      4.3069009340	      3.8228574539	      3.4417578159	      4.8933507019	     16.3672775146	      2.6995711468	      1.6417474745	      5.9751234328	      8.2357049108	      5.5320894069	    116.0660395184	    128.7241076302	      3.8390483668	      1.8246983946	     15.5194485044	     92.1745620712	     12.9753330115	     13.6840126406	     18.7459628056	     15.6106468437	      6.8565065818	     35.5119233392	     15.9153461381	      4.2901001451	      3.6899239291	    100.3597660146	     16.6415549454	     59.0264132195	      6.0530867457	     18.2246998507	      1.7331162998	     25.0584349044	     25.1235700206	     37.7944103524	     63.4381637855	     25.3487976339	     91.3131006305	     -6.0946184113	    748.7913746935	    -30.4689433846	     -0.5466377319	     -1.6465709604	     -6.2530572526
      0.2800000000	     20.9833640733	      6.4697547793	      6.8254087591	      4.1782182415	      3.9261682307	      3.9020121916	     37.8472142217	      6.2208545932	     10.6353251172	     35.0682859808	      2.3182461655	      9.1688467112	      4.6783454937	      3.9878430651	      3.5678049924	      4.9661092342	      3.4650504691	      3.3814148067	      2.1101733301	      5.8895038577	      8.3002682011	      5.5772106325	     49.8245540601	     51.1458972431	      3.9863973766	      1.8306001279	      4.7857996358	     11.7454922467	     12.9762658621	     13.6864023973	     18.7500291745	     15.6415631582	     35.5304868418	     15.9453875839	      4.5185262583	      4.0942912016	     77.9343005510	     13.3554796533	     47.1994073082	      4.5214817664	     15.2799346370	      1.9475213797	     55.0297617912	     28.2667672428	     37.0049042331	      7.4524359276	      9.2907577981	     11.8182392895	     12.9571989693	      4.1417249547	      9.0023050530	     88.2885366516	      9.9704679305	      6.2987920307	      4.3117833208	      3.8268827580	      3.4453253593	      4.8972833833	     16.7353463879	      2.7158243836	      1.6556771900	      6.3807263701	      8.2623886304	      5.5365369763	    122.1724161652	    137.1469142002	      3.8594553694	      2.2149362143	     18.6394610924	     64.2708551190	     12.9795634250	     13.6881975768	     18.7498831893	     15.6251115542	      6.8683583697	     35.5202053560	     15.9292943080	      4.5006820274	      3.9478598226	    100.9483259854	     16.7657971775	     59.3357892884	      6.0205108753	     20.3295120842	      1.9500491460	     25.0772286850	     25.1786418826	     39.7370194229	     68.2537345303	     25.7530635765	     98.6637727000	     -6.6449339768	    758.2107829367	    -24.0327870204	     -5.2082081122	     -1.1480556128	     -9.9963848178
      0.3000000000	     36.9569988834	     11.6406373629	      8.7957067407	      4.7998439960	      4.8421965923	      4.9701868230	     51.8723097333	      6.0894621131	     11.1658877038	     38.5010235555	      2.3165135290	      6.4899182513	      4.4027520255	      3.8963750324	      3.5143399654	      5.0030176249	      3.8315669531	      2.8237612655	      1.7988702684	      6.4400110282	      8.5159185959	      5.5979166688	     37.1451384628	     39.2796833210	      3.9838863432	      1.8336925030	      5.5044689137	     11.8532372550	     13.0537723556	     13.7625869491	     18.8315505681	     15.7012292233	     35.5719071917	     16.0101476664	      4.2900675092	      3.8934051324	     78.1368291915	     13.5819917064	     48.2280746637	      4.4801084595	     14.8869093916	      1.8430277557	     43.6043212751	     26.6863638475	     39.4969238789	      6.3128012077	      8.4820173694	     11.5662542535	     13.0537734159	      4.1879146578	      9.0497329313	     99.7729236646	     10.5326727452	      6.3218063447	      4.3301278996	      3.8414982397	      3.4584276933	      4.9117649021	     16.4791683423	      2.7520506250	      1.6788418887	      6.2270746443	      8.3168732073	      5.5514340404	    122.8459630581	    139.4099390719	      3.9075362965	      2.2546267095	     20.8224385231	     35.5039734773	     13.0044502765	     13.7125261826	     18.7744079529	     15.6785020075	      6.9146952640	     35.5494590806	     15.9765420693	      4.0815738804	      3.6918166329	    103.2914666771	     16.9277808936	     59.6839082235	      6.0360343597	     21.6749879880	      1.8808894550	     25.1416119152	     25.3325459357	     39.5947559179	     69.9552715208	     24.4174253913	    101.7089883337	    -11.0411279219	    766.4341595310	    -19.7629460260	     -8.1638686502	     -0.4137429056	    -13.7691184944
      0.3200000000	     43.7046855259	     12.7229940718	      7.5452848419	      4.8088423837	      4.6270904267	      4.3973581370	     67.4721492339	      6.6955409890	     13.1555968597	     34.7299633171	      1.8605658092	      6.3311299237	      4.3361149415	      3.8459213955	      3.4672979794	      4.9355723132	      3.1902316816	      2.7244957468	      1.6785809089	      6.0074282130	      8.3066475086	      5.5525668939	     24.3797648201	     25.2561812194	      3.8585116535	      1.6949117793	      4.7515505366	     11.7434360783	     12.9809181991	     13.6903015880	     18.7540354847	     15.6251104760	     35.5206263430	     15.9287398365	      3.8672580858	      3.5308253351	     77.7175921349	     13.4288208781	     48.1155026151	      4.3347697035	     14.1274977962	      1.6923363586	     37.5242372575	     24.1973800659	     36.8550357712	      5.2716653812	      7.3743218796	     10.3424635670	     20.4819555371	      4.2102843215	      9.0402665492	    123.8132520665	      9.7757877766	      6.2900955764	      4.3060504308	      3.8228023690	      3.4416369030	      4.8932015130	     13.5728961295	      2.6954630968	      1.6519684518	      5.9668188744	      8.2469969920	      5.5333090666	    104.4671309039	    119.6311397143	      3.8506032273	      1.9771010011	     19.2990010068	     11.7532582909	     12.9586829145	     13.6682279250	     18.7284888763	     15.6258755289	      6.8675593964	     35.5120518252	     15.9161380916	      3.5352391023	      3.3803350943	    104.8485959342	     16.7815916088	     59.2396912614	      5.9763215254	     22.8069136855	      1.7236640464	     25.0530921530	     25.1354603427	     37.2829622122	     69.4013226328	     20.8166379103	    101.8216212518	    -19.9987289227	    773.4920891343	    -18.9741685387	     -9.3236335622	      0.4709636150	    -18.9491448288
      0.3400000000	     46.4403036385	      5.8131185576	      6.5626560241	      4.8109698766	      3.0823335108	      3.2915377104	     85.9903632143	      9.9669025066	     16.5388794715	     19.1288391893	      1.6136144724	      9.4921100478	      5.0002291772	      4.0122697113	      3.6996783487	      6.1781568208	      2.4436406925	      2.8795955119	      1.7297461827	      5.7716302378	      8.2354597127	      5.5608852194	     17.8938324106	     14.2461501389	      3.8355306128	      1.6643155135	      4.4723363754	     11.7526515051	     13.0170956289	     13.7258796826	     18.7946559489	     15.6215905816	     35.5245129800	     15.9349747172	      3.8300581968	      3.5256522038	     76.3719997839	     13.1222624685	     46.9439254359	      4.2238479071	     14.0010110626	      1.7024226439	     22.5296482640	     16.2428929439	     26.2846901673	      3.7719965237	      5.1068915005	      7.2895457670	    104.9436427751	      8.8964271917	     16.3393261072	    122.8400163310	      7.6094194947	      6.2992402591	      4.3131580659	      3.8285504122	      3.4467376884	      4.8988690391	      8.9268196299	      2.7080452807	      1.6851202726	      5.9435109090	      8.2673889890	      5.5393525103	     79.8967811021	     91.7086820356	      3.8694386296	      1.8906325884	     14.3938734485	     11.7268928439	     12.9594713538	     13.6691332048	     18.7291393057	     15.6383572134	      6.8766751157	     35.5149362601	     15.9212164196	      3.3783495388	      3.3486841696	    102.8585497803	     15.9675832359	     55.9751310701	      5.7690129128	     23.9542321517	      1.7648939863	     25.0596240760	     25.1670363358	     34.2581904069	     67.3853068908	     17.2547675363	     99.5987334095	    -34.7826338158	    777.6017806376	    -17.9692939232	    -10.8839861375	      1.4038338440	    -28.0889166179
      0.3600000000	     53.9105233725	      5.7669377988	      6.5469634538	      5.4492288282	      3.1223813897	      3.2608420390	     99.2970064697	     11.7675411024	     20.4401411176	     11.3081578395	      1.6064555432	     20.3895555109	     10.0759981560	      5.6821505108	      6.2029495794	     16.5012359460	      2.4522695291	      3.3099350828	      1.8320820648	      5.7530215399	      8.2173865867	      5.5590374627	     12.7567849767	     11.7093103140	      3.8264937748	      1.6558371748	      4.4578137258	     11.7524638121	     13.1670358342	     13.8731671456	     18.9636414144	     15.6140257753	     35.5225597390	     15.9323737538	      4.1809706266	      3.8346759546	     74.1291119666	     12.6243172122	     44.9522128893	      4.1298506157	     14.5372084769	      1.8241268784	      8.2157374000	      5.7737048973	      6.6874848676	      2.7338929020	      2.9019428199	      3.3265423177	    193.0561148817	     23.7802611969	     80.6915918350	     97.6498004162	      3.2427590498	     18.4387923157	      5.5994345861	      4.4006003732	      3.5794630068	      4.9310778320	      2.4394852104	      3.7096102327	      3.8242332797	      5.8007225492	      8.2713940997	      5.6018036809	     52.7948132673	     58.0732065640	      7.8340660396	      2.1404002239	      5.1352413995	     11.7142158130	     12.9606980493	     13.6705162569	     18.7302563105	     15.6325266977	      6.8719364253	     35.5145149600	     15.9211728763	      3.5693214678	      3.4507803126	     95.4923979913	     14.0775657334	     48.6323046690	      5.2665858377	     24.3929879416	      2.0331922479	     25.0572811179	     25.1769603940	     32.4856107029	     64.1299728413	     16.9356654427	     94.3043165992	    -53.1584763388	    775.9203306947	    -12.5101351860	    -14.3543455001	      1.9155352053	    -41.7145200472
      0.3800000000	     64.8786849162	      5.7538718286	      6.5415391028	      6.0503256526	      2.9780924049	      3.2528370947	    115.6950723973	     13.5279453998	     20.4320045915	      9.0464689660	      1.5941354917	     30.7559323466	     15.6386722252	      8.3829737960	      9.3631822558	     24.8440602714	      2.4081525345	      3.5960800677	      1.8112841279	      5.7468938359	      8.2125582546	      5.5666515999	     11.7136213828	     11.2426886335	      3.8227208912	      1.6529135736	      4.4525231438	     11.7695481617	     14.3509161100	     15.0925735078	     20.5086243378	     15.6137075200	     35.5232205216	     15.9330013321	      4.1085335518	      3.8145600254	     72.3713589150	     12.1007562638	     42.8609564281	      3.9806036652	     14.3394913819	      1.8571811513	      8.2409138812	      5.7779501107	      6.6096137944	      2.7342359177	      2.8882451895	      3.2815132147	    300.9473371726	     37.3027699114	    139.0037850065	     91.6111740153	      1.8157935944	     42.3394554065	     17.8807932788	     15.6840749276	     10.3352826301	      8.7874313758	      2.3573566784	      4.8480560582	      5.6397019183	      5.8058554771	      8.3545632425	     15.8777935655	     18.6284911856	     19.1189785065	     11.9512428429	      2.0567033170	      4.6546146685	     11.7081180130	     12.9604220716	     13.6703771684	     18.7300363320	     15.6648474508	      6.8970626590	     35.5179325662	     15.9271491349	      3.4364275843	      3.4188381701	     84.1547432412	     11.7263360431	     39.6552249628	      4.5714798793	     22.8928830739	      2.0980154781	     25.0625840278	     25.1513168158	     34.0824484142	     59.8544433265	     22.9782967803	     84.6631699132	    -70.1703137215	    765.9341313524	     -2.5508923945	    -17.6745969923	      2.0812107682	    -58.1464088278
      0.4000000000	     79.2323378075	      5.7449632609	      6.5373414384	      7.5674810305	      3.0121214078	      3.2428272955	    132.8651175811	     15.1642576825	     18.7146570029	     10.0836309753	      1.6098758402	     37.2862365483	     18.7109978290	      9.6527956557	     10.7281309457	     29.2182738151	      2.4670381971	      4.3048759765	      1.9084899094	      5.7402340385	      8.2033092070	      5.5494307233	     15.8500951759	     11.6834023980	      3.8180501426	      1.6477754367	      4.4479782737	     11.7831082415	     15.9588543692	     16.7672647904	     22.7299263977	     15.6160598105	     35.5221475652	     15.9403709391	      4.5627445209	      4.2313109631	     69.8012882372	     11.9079121372	     40.8689383667	      4.0827377153	     14.8121591955	      2.1047033218	      8.8819133508	      5.9378835186	      6.6058874433	      2.9943735017	      3.0989760642	      3.4412125746	    388.7732628486	     47.5612313929	    179.4852893622	     95.7669624761	      1.7051511054	     37.9273734377	     18.4736005075	     17.2613446797	     13.3758962244	     18.4616066162	      2.3686929609	      4.8134925976	      6.3713923194	      6.1485692643	     10.1602601135	     26.4638126249	     11.5634263374	     11.6994001604	      9.2522660976	      2.0080430237	      4.5447120200	     11.7044931067	     12.9585497204	     13.6685167907	     18.7284873735	     17.1602976089	      7.4862348595	     35.5366743310	     15.9437135867	      3.7489485703	      3.6462334180	     74.4566628246	     10.9500480487	     34.8850226593	      4.3643217562	     19.9749522857	      2.3214188838	     25.0715315476	     25.1128020357	     39.8379502537	     54.3631264880	     37.4574316603	     70.2914983687	    -75.1931020343	    750.6273936597	      7.8320631633	    -16.0191121706	      2.8382317220	    -69.7966348507
      0.4200000000	     98.0450988279	      5.7439822931	      6.5368252448	      8.9629126392	      2.8995025401	      3.2444882756	    141.1777190406	     14.9176985354	     11.2992872280	      9.0275874336	      1.5845221169	     36.8185938255	     18.2938441751	      7.5451286965	      9.3407476368	     29.9321377595	      2.3857294418	      3.7316947648	      1.6772469026	      5.7395715133	      8.2020029237	      5.5349403211	     19.2069190960	     11.6536913059	      3.8180776435	      1.6484173481	      4.4477158070	     11.7452303929	     14.2454440573	     14.9965565765	     20.4423168543	     15.6112967629	     35.5256332635	     15.9382324941	      4.0989157816	      3.7990642494	     68.9941331849	     11.5839212578	     40.8827595428	      3.7932008123	     13.6406520147	      1.8328166334	     11.8443435181	      7.9242424750	      9.8676889956	      3.1210839010	      3.3007478827	      3.7716996688	    476.0443920157	     56.9820690792	    215.4458102271	    108.7995108666	      1.6041460498	      6.4179734493	      5.1355150055	      5.6485119387	      5.9666659277	     14.4745471721	      2.3580735488	      2.8304133739	      5.2963699492	     11.4558751090	     28.1806029297	     21.1835037091	     10.8291198613	     11.2295504078	      4.0175091327	      1.7732656963	      4.9769730657	     11.7020827168	     12.9557113167	     13.6655989385	     18.7262674443	     23.8916671864	      7.8015223442	     35.5267411289	     15.9373733751	      3.7149066931	      3.5431757111	     72.3043646367	     11.3455619653	     38.9319228720	      4.2463313509	     15.4997519220	      1.8621854310	     25.0873487313	     25.0811457180	     49.4622395621	     47.8630391497	     59.7779671822	     51.6174613583	    -73.4708827828	    729.4594874920	     16.9859903497	     -8.2828640515	      6.0309624382	    -79.2876804298
      0.4400000000	    120.1747224819	      5.7416934098	      6.5361885486	     11.4146045809	      3.0481970621	      3.2416778880	    137.6743254084	     13.1973801984	      9.9727263617	     15.3965730071	      1.6765268343	     24.5321583061	     10.9586583210	      4.7684407622	      5.1910418707	     20.0213731950	      2.6811278118	      3.8919455775	      1.7433939199	      5.7382104274	      8.2002433429	      5.5338831888	     40.3367800008	     21.0944145192	      3.8181121037	      1.6487709673	      4.4470962704	     11.7530840106	     13.3473548755	     14.0435737540	     19.1413759901	     15.6082386290	     35.5153703631	     15.9054179931	      4.7198341924	      4.3906229612	     66.4201928730	     11.9894376625	     41.6115631685	      3.9748715425	     13.5923913110	      2.1051454361	     35.3431843362	     43.0130051316	     78.8707460002	      4.7096372707	      7.7351499914	     13.7567777319	    500.8972426270	     53.9343674269	    206.4354966232	    175.5010921348	      5.3136328522	      6.2850933652	      4.3050791800	      3.8240205172	      3.4435336613	      4.8994518522	      3.4923841618	      2.6917995501	      2.1662827278	     38.7779326132	     49.7629089880	      5.5409304489	     11.6566035575	     13.0975299060	      4.7644391471	      3.3749839953	     32.2682024832	     11.7009982360	     12.9498526698	     13.6596552070	     18.7204711590	     66.7679591913	     10.3645382475	     35.5120716313	     15.9160601294	      6.7916431486	      5.3214630082	    116.1237680984	     18.3793791457	     64.5051445650	      6.7429315140	     16.0511056339	      1.9340360247	     25.1466783346	     25.0720739490	     61.3361118433	     40.6016028303	     86.8483736593	     30.1640106886	    -63.5744935906	    710.3045013999	     26.4274278963	      3.0921202018	     11.3524674296	    -81.8322052188
      0.4600000000	    148.4985620224	      6.5523883159	      6.5646953414	     15.1887299550	     10.4560263157	      3.6154562459	    103.3169400157	      6.8474728262	      9.1121154381	     57.3421337860	      2.4027312606	      6.2945382428	      4.3101620777	      3.8254793807	      3.4463667355	      4.9086516666	      7.8511350176	      2.6996068373	      1.6427090447	      5.7631661749	      8.2131717761	      5.5293496682	     60.7835283272	     56.2726690151	      3.8228655730	      1.6566644426	      4.4696622728	     11.7239380588	     12.9648143769	     13.6742535796	     18.7367117954	     15.6868171022	     35.5265171093	     15.9366284324	      4.0506413844	      3.6536028546	     66.3756597255	     12.2981967857	     44.5983175444	      3.6674210566	     10.9069026842	      1.6897561062	     51.8414119719	     74.2104010354	    142.2346709923	      5.6922042433	     13.2300678084	     25.0496362937	    453.9023578711	     43.1945283636	    165.6415892944	    226.2333814793	     11.7304158242	      6.2774446704	      4.2975274059	      3.8170467393	      3.4368487421	      4.8890754561	     10.5309921488	      2.6738849290	      1.6395048744	     60.9172765105	     61.3310898169	      5.5318226520	     25.7603247090	     50.4944276818	      3.9527029414	      5.7011161299	     61.1600276072	     11.6982769220	     12.9462157717	     13.6560179437	     18.7166745264	    101.7938679085	     10.4424136637	     35.5047383686	     15.9045200297	      9.4876475656	      6.0135437883	    155.0458737624	     24.2858440511	     85.4065982919	      8.9367248384	     17.2015880433	      1.6603190316	     25.2192027643	     25.0483458106	     71.2258307581	     31.2502485135	    114.9552078108	      9.8701640465	    -44.1191139380	    699.5753442694	     39.7663529890	     12.8451783747	     16.7215301582	    -72.9871278084
      0.4800000000	    200.6537139493	     28.2728731433	      6.6882879716	     21.6767486119	     17.3502284627	      9.2320945761	     46.8841618695	      4.6533810066	      9.0336621522	     85.6334634546	      5.0050159954	      6.2871663142	      4.3029152295	      3.8203360413	      3.4403448649	      4.8946134948	     14.6873598520	      2.7104636685	      1.6587018920	      5.7921496313	      8.2129585782	      5.5266412635	    129.9987586510	    130.0887740713	      3.8265795827	      1.6720506178	      4.5389625593	     11.7268914783	     12.9557830737	     13.6654772322	     18.7265870829	     18.2792787890	     35.5278242313	     15.9354785934	      5.1665881625	      4.6225206961	     66.4730526940	     13.3275975623	     48.1713818394	      4.0651876621	     11.0145943972	      1.8982438650	     58.8966592594	     83.6665290463	    160.5721293394	      6.8552516794	     15.1916574265	     28.5400968793	    370.8943488452	     31.6533214424	    122.2455321439	    225.6670942716	     13.7946675228	      6.2765512005	      4.2965383194	      3.8160702583	      3.4358594502	      4.8876089856	     14.4047632434	      2.6726582925	      1.6374577079	     66.9372059876	     62.1174571792	      5.5298064462	     45.0985291711	     74.6272969528	      4.2856774234	      6.5014951547	     69.4769089456	     11.6987852352	     12.9460150547	     13.6558010540	     18.7164761135	     98.6345748383	     11.5274337577	     35.5044750919	     15.9042579505	      9.7318087186	      6.6616188021	    157.1326385913	     24.7946328654	     87.2737413129	      9.1513355915	     17.4684124388	      1.7623760467	     46.6163041957	     25.0387782665	     73.2399552728	     19.6299521811	    142.1959949860	      9.0156496620	    -19.5468261394	    695.2856150681	     56.8948857333	     17.0091062071	     20.4931401534	    -55.6783984239
      0.5000000000	    221.3797625681	     43.9745969496	      7.4534747713	     26.1599229882	     22.5727624581	     15.8168409688	     12.9162312182	      4.1206872735	      8.9770796259	     83.1484937915	      8.2433407394	      6.2868450487	      4.3007423389	      3.8185062555	      3.4381036068	      4.8898469156	     23.4966232144	      2.7146435253	      1.6479511856	      5.8002482229	      8.2059393643	      5.5245781324	    241.7250548530	    249.4996391042	      3.8336382111	      1.6962961527	      4.8873001578	     31.7600256850	     12.9592184373	     13.6690545362	     18.7301215100	     16.7974321863	     35.5259547175	     15.9331176817	      5.5778742431	      4.9753946469	     64.8250365607	     13.7399705415	     49.5764384321	      4.2239039066	     10.5128388216	      1.9264940658	     56.9179148730	     72.0310458572	    135.1996584802	      6.8302301494	     13.5593800897	     24.6032176852	    289.1000329921	     23.3181902112	     89.7764089513	    190.8288836757	     12.0434989207	      6.2777297402	      4.2976226684	      3.8170172612	      3.4367889256	      4.8888105501	     13.3331162293	      2.6744135284	      1.6393849998	     55.7605776850	     47.6799001625	      5.5310588464	     48.2249363623	     73.7380395004	      4.1342660406	      5.3876923684	     58.2529688239	     11.7010564751	     12.9473291320	     13.6570999115	     18.7178729362	     70.3431251584	     10.2728712249	     35.5069542506	     15.9079063719	      7.9755146347	      5.8655845443	    131.5271265093	     21.0654384807	     74.1347186859	      7.8140035210	     16.1327223321	      1.8319274723	     66.4149974415	     25.0381575124	     76.2746441449	     17.6694162167	    149.6181987713	      9.0522307971	      6.8518516744	    693.7350401131	     71.3705096701	     15.2948537741	     21.9444278509	    -34.3449528352
      0.5200000000	    180.7743253312	     43.5447185467	      9.7141026343	     24.9897604674	     22.7186718295	     18.5385884102	     12.9028523913	      4.1165286104	      8.9734163333	    107.2458624598	     11.0447123581	      6.3007890789	      4.3018800052	      3.8194637200	      3.4381455979	      4.8877642837	     27.7786682640	      2.9621571722	      1.7069068911	      5.7635389835	      8.2009753215	      5.5242111253	    357.0082708551	    373.7950854465	      3.8554622947	      1.7421332295	      6.2915832682	    107.9860249895	     12.9551753954	     13.6651256145	     18.7254663095	     19.9476021552	     35.5269945688	     15.9341917972	      5.6061502485	      4.9350950709	     72.1323900344	     14.3698943550	     51.9430471472	      4.5163689045	     11.1670268913	      1.9412515506	     45.3834849488	     47.6895405744	     85.6401759889	      5.7517507691	      9.6032754151	     16.2810749480	    227.1392552686	     19.4076441491	     72.4296189638	    139.9417903375	      8.0823413953	      6.2810312081	      4.3005547221	      3.8196122553	      3.4392588633	      4.8918997107	      8.9566222284	      2.6874963614	      1.6970770329	     34.9197996570	     26.1308358730	      5.5346257459	     40.3459750364	     56.8961672299	      4.1262619716	      3.5240063543	     36.5069973122	     11.7049320569	     12.9500306403	     13.6598115841	     18.7207071873	     31.7626810203	      8.5009054395	     35.5152487406	     15.9197130843	      5.5036888240	      4.6245912649	     94.7496556897	     15.8007317898	     55.4861141629	      5.8730375025	     14.8052090365	      1.9447855517	     58.8190226510	     25.0393912484	     70.1119062141	     16.8548401376	    138.3460424018	      9.0400041700	     33.5112268848	    694.9450334412	     73.4323569501	     10.0208506718	     20.7490205194	    -12.7345947941
      0.5400000000	     78.5721635465	     21.0609756507	     16.6635914922	     17.1850716918	     16.2999853839	     14.8793551693	     12.8977226266	      4.1132570328	      8.9714084118	    118.8246236694	     12.2731698496	     11.3092251392	      4.3077472542	      3.8230696536	      3.4399393519	      4.8876303053	     26.5875332538	      4.3115342565	      1.7832726109	      5.7438751412	      8.1978814212	      5.5240530783	    436.7958894224	    460.9655839268	      3.8819310940	      1.6987794834	     13.8509786446	    166.9642730754	     12.9553771920	     13.6653473632	     18.7252312294	     16.4168270175	     35.5193396383	     15.9262035855	      4.2734771376	      3.6855359660	     78.2848199401	     13.8543325529	     49.8090786046	      4.5799695049	     12.4129538697	      1.6850382993	     22.8427987253	     16.5542977193	     26.0453359781	      3.4055736736	      4.2372958809	      5.8855917629	    171.9728162554	     17.6698230463	     61.7681752041	     78.9380311824	      3.1356476142	      6.3042584709	      4.3208268126	      3.8368646659	      3.4559220078	      4.9132889020	      3.1238954189	      2.7078416173	      1.7100453059	      9.8351891222	      8.7791715514	      5.5563757262	     24.6051132440	     30.3269280097	      3.8913797898	      1.8231227470	     11.0225936723	     11.7147449216	     12.9598190437	     13.6695844970	     18.7309076033	     15.6473093705	      6.8814836234	     35.5156544115	     15.9212672405	      3.7846553109	      3.4756571346	     84.6330029742	     13.6437544282	     47.9364065932	      5.1709269920	     15.2241537880	      1.6914879661	     25.2920180941	     25.0525337320	     61.2783813648	     24.9313246383	    105.9813930867	      9.2704851154	     57.9300910845	    702.7769905208	     56.7650398663	      3.6074882718	     16.6395235537	      5.4902297859
      0.5600000000	      8.2616120578	      6.2709822977	     20.1340141227	      6.8646470833	      7.4839682121	      8.9541937461	     12.8967293275	      4.1132978664	      8.9721078947	    110.5212481313	     11.6201260899	     74.7575460596	      4.3381268110	      3.8375122401	      3.4453941008	      4.8884549670	     21.0253321993	      9.6432234613	      4.5070341094	      5.7440048106	      8.1985557248	      5.5250726567	    442.7711200233	    470.4620273131	     22.3868572142	      3.0929329380	     23.3193015693	    198.3848026685	     12.9571126295	     13.6670678974	     18.7267410023	     15.6393085282	     35.5145782159	     15.9207687815	      4.3007478364	      3.8958628901	     89.5077959700	     13.8821230932	     47.9285843863	      5.2371728650	     18.7293024104	      2.0177403900	      8.1969173592	      5.7569096070	      6.6073945974	      2.7458235056	      2.9040521999	      3.3062863160	    110.0157581675	     15.0731592457	     50.5002171912	     34.5105131409	      1.8479141795	     43.1101400923	     17.0740072426	     13.7357100396	      8.9088928114	      7.6254770876	      2.3827215270	      5.1810855809	      3.5429627708	      5.8197442706	      8.4035312037	     10.5704476086	     26.3727319763	     26.7895429369	      8.7418971336	      2.0904123291	      4.6757380380	     11.7335342776	     12.9813219620	     13.6911453403	     18.7529820734	     15.6116696267	      6.8575198351	     35.5133418778	     15.9192652597	      4.3339834395	      3.8855950227	     92.2165470924	     14.0762055005	     48.3881322332	      5.5791794208	     18.5949553617	      1.9810686966	     25.0964029559	     25.0747910247	     52.0511261161	     44.4873468461	     68.9084886686	     42.6585984693	     76.5008695421	    718.7430171801	     24.7063931833	     -3.3818922173	     10.2613039325	     17.5509160847
      0.5800000000	      8.2055003135	      5.7671104633	     25.1073359177	      2.7365349506	      2.9598513439	      4.1991800550	     12.8962452555	      4.1152414066	      8.9740164576	     92.0906576441	     10.1387399760	    149.9518621202	     22.8508730114	     16.3143375584	      3.7399409158	      4.8906126332	     12.6520496878	     15.9928026062	      8.8605566556	      5.7445959395	      8.2002859230	      5.5282805097	    432.1402480695	    463.6449311272	     58.9921547446	      6.8923653182	     35.4152488996	    231.9743947958	     12.9617423823	     13.6715890937	     18.7312634004	     15.6197628832	     35.5105527157	     15.9162453659	      3.9976704614	      3.7048347144	    106.4268314101	     14.6875706571	     49.2194142198	      6.1493096037	     25.1893072819	      2.2193291023	      8.2132406027	      5.7585291028	      6.5802231999	      2.7259300386	      2.8791851008	      3.2696614042	     51.5869170147	     10.5092384268	     36.1724128548	     20.2529519308	      1.8396107626	     79.4185010800	     32.6691193582	     28.1055027020	     17.2862878379	     10.8079376301	      2.3634701517	      8.3727244973	      4.5570621029	      5.7904483919	      8.4056877812	     27.2334043585	     35.2084399841	     36.7770602198	     24.0610019978	      2.6794890668	      4.6727746536	     11.7666838303	     13.0381983070	     13.7448713295	     18.7936908583	     15.6065559656	      6.8526364693	     35.5118260804	     15.9185376341	      4.4022751993	      3.9469163244	     97.1071911525	     14.0688944330	     47.5192043807	      5.7433285942	     19.9123035378	      2.0647836945	     25.0618311373	     25.1244850329	     42.2310640600	     63.7574413582	     37.4943368304	     85.2307929791	     88.8743921063	    737.2846142777	    -10.7529935034	    -11.2959683025	      4.1284565210	     25.3493335249
      0.6000000000	      8.2007690970	      5.7540682904	     35.0104224539	      2.7167801355	      2.8742107341	      3.3664239204	     12.8955128883	      4.1156555476	      8.9750931626	     76.5586662229	      9.5351046769	    178.9583824612	     38.4847978805	     31.7967135732	      7.1389702140	      4.8918670558	      8.2207966988	     18.5197019846	     10.9285475136	      5.7453354798	      8.2021769169	      5.5321584691	    409.9060348467	    443.8983124691	     80.5850100863	      9.6691802385	     45.2273387938	    269.6238332129	     12.9675529385	     13.6771667578	     18.7371802740	     15.6050695618	     35.5074863994	     15.9099620575	      3.5496257436	      3.3949550332	    123.6837706335	     16.1732838494	     53.7330804501	      7.2666953051	     29.8598849493	      2.0987152776	      8.2067956373	      5.7529074234	      6.5713347766	      2.7174003138	      2.8694138040	      3.2549754230	     13.8337111074	      6.1298620013	     21.4366056275	     11.7803915774	      1.7618166082	     97.5290596127	     40.3739773934	     35.9037753274	     21.0832382489	      9.5611487757	      2.3517616247	     10.2168832844	      4.8841826887	      5.7713984144	      8.3254348955	     38.9856632994	     40.7037923232	     44.3483427788	     37.6187216650	      3.4401805935	      4.6231109307	     12.7398168126	     13.3030708246	     14.0139870759	     19.0828722765	     15.6043734469	      6.8520219491	     35.5130072603	     15.9192751806	      4.1601926260	      3.7042423731	     98.4656553333	     13.6617721893	     46.1388621909	      5.6463139903	     19.2423181086	      1.8984713971	     25.0483426463	     25.2357277346	     36.0086485742	     78.7972334091	     15.3519689031	    119.9073475795	     88.9993999228	    751.4549059924	    -37.7425063372	    -18.3478190262	      0.2568772293	     28.4533143711
      0.6200000000	      8.1992637528	      5.7517582125	     42.7138128186	      2.7132122136	      2.8692812241	      3.3476461863	     12.8953329015	      4.1155331663	      8.9760598383	     57.2379874018	      9.0857105377	    177.3505103494	     41.8884034178	     35.8966233983	      9.8544693001	      4.8928753911	      5.9402962939	     18.3693873968	     10.8109713080	      5.7480646382	      8.2057063131	      5.5390558869	    369.0739936658	    403.5949494102	     90.9158371612	     11.2335724522	     50.7720238783	    304.5501866859	     12.9788797131	     13.6880706470	     18.7487289563	     15.5990751460	     35.5053419602	     15.9062474951	      3.7718227697	      3.4880056259	    134.9556537534	     17.6233970882	     58.3069239914	      8.1860939824	     31.9230085066	      2.1871422812	      8.2052007840	      5.7528274793	      6.5911318623	      2.7158562421	      2.8684804236	      3.2563436284	     12.9754192944	      4.6899089321	     11.5350848498	     11.1294399567	      2.0651119189	     92.6556677198	     37.3557639088	     33.7250473155	     18.1571363146	      6.2491462114	      2.3538133669	      9.9227662036	      4.4629022483	      5.7881673160	      8.5838075147	     36.5914179176	     48.5247603415	     54.7619921876	     43.0737991553	      4.2724351323	      5.3414661681	     32.0103078635	     14.1798191016	     14.9180738068	     20.1383622994	     15.6045098679	      6.8527730565	     35.5134088364	     15.9208227826	      4.5476714837	      3.9991283339	     96.3873093124	     13.5991204477	     45.8734221360	      5.5315995692	     18.3507185762	      1.9885182253	     25.0445903857	     31.7762260822	     29.3095519037	     80.8341447556	      9.3872785764	    136.4427507137	     75.9925348428	    755.5053746871	    -50.8688379365	    -20.8324582107	     -1.2461063655	     28.9852156835
      0.6400000000	      8.1987739244	      5.7512782312	     46.9807416383	      2.7116094898	      2.8667109108	      3.3045116709	     12.8959032318	      4.1158641015	      8.9783409892	     30.2995786377	      7.8915381390	    156.6990577316	     39.7668727298	     35.6542282748	     10.7375077897	      4.8953192580	      3.9310599537	     16.3935735544	      9.3092755943	      5.7545093944	      8.2151299768	      5.5867157370	    299.0906856717	    331.4787430020	     93.9428084085	     11.8516347855	     51.8969335792	    317.4426435953	     13.0380724897	     13.7445109077	     18.8057646746	     15.5968801216	     35.5050696282	     15.9057039332	      3.9317519269	      3.5326297880	    135.7787829411	     17.7120299027	     58.4752916565	      8.3488064002	     30.3387613197	      2.1159830882	      8.2071144923	      5.7576367474	      6.6959865142	      2.7175402998	      2.8708606970	      3.2635647141	     12.9566792067	      4.2799294885	      9.3709977351	     13.1651594483	      2.5023185081	     71.5242330955	     26.8177652123	     24.0568377436	     11.0013109670	      5.0856108098	      2.3684117887	      8.0115853956	      3.5104160098	      5.8224606304	      8.7033573676	     21.9583060117	     56.7402586959	     64.6379717260	     38.6248131843	      4.2490860317	      6.8644340102	     48.8230585898	     13.4846072620	     14.1961765688	     19.2646048498	     15.6059309570	      6.8537634439	     35.5141946319	     15.9216291314	      4.7953319838	      4.1558368236	     93.6222536239	     13.8672569926	     47.4400166451	      5.4231905854	     16.8981787342	      1.9585670380	     25.0483552181	     37.8611954098	     25.2258286217	     73.9358480716	      9.2095342183	    125.7890276154	     51.6875812960	    748.9414181883	    -50.4508383975	    -17.0134782062	     -1.8204200836	     27.2016911311
      0.6600000000	      8.1990477360	      5.7520543363	     45.1679485827	      2.7112651714	      2.8660229744	      3.2725873747	     12.8969146689	      4.1162600206	      8.9813812031	      8.7126172523	      6.3593058870	    126.3203048329	     33.9770009092	     32.1507718321	      9.7871859787	      4.8992970732	      2.6132756525	     13.4929248218	      6.9935236108	      5.7647227632	      8.2373082702	      6.0920862419	    223.6755167917	    252.1982523336	     89.8316534177	     11.4806843007	     48.3350316521	    312.2050068850	     14.2690548715	     15.0293344327	     20.4799614105	     15.5968238340	     35.5062625608	     15.9076863608	      3.6952856603	      3.4083519240	    127.6621447722	     16.5256723474	     54.5252557245	      7.7840447850	     26.1246739446	      1.8289756683	      8.2143009361	      5.7685562810	      6.8921581178	      2.7230182404	      2.8780744943	      3.2767584173	     12.9496649822	      4.1622847176	      9.0650853149	     16.7448158200	      2.8684402675	     47.3583611748	     14.3595542155	     11.9386867028	      4.3655969033	      4.9299552107	      2.4038882672	      5.6877389660	      2.3883619542	      5.8278166501	      8.4065901674	      6.4304716949	     69.4056962485	     78.4237236871	     29.4237896801	      3.6007710237	      7.8910063520	     54.9264547354	     13.0730847269	     13.7832213011	     18.8438024282	     15.6080488364	      6.8546402202	     35.5147652720	     15.9207130865	      4.5307250267	      3.8457361605	     91.6337606141	     14.2161984834	     49.6645948092	      5.2728420071	     14.9117632180	      1.7628727697	     25.0617805634	     30.0702223089	     20.0329972156	     58.1862294010	      9.2737446632	     97.7796735213	     25.4400088404	    736.3603550567	    -38.5394626123	     -9.7668078497	     -1.9268290596	     24.7127611090
      0.6800000000	      8.2008979759	      5.7557994085	     34.0616132290	      2.7130904126	      2.8684153249	      3.2733525343	     12.8995385437	      4.1179746182	      8.9850006678	      8.2143189083	      5.5027563228	     87.5590735018	     22.4507187415	     21.6384732636	      4.9592266734	      4.9012834374	      2.5905213006	      9.8423414493	      4.3248993275	      5.7732946268	      8.2541283892	      5.8861822138	    167.1243080934	    190.4124664077	     72.1912780706	      9.4436007150	     38.2526220905	    272.7195931141	     19.1301823265	     21.0563521283	     33.8872022648	     15.5979759092	     35.5081174803	     15.9107390938	      3.9352574492	      3.4876111916	    115.1361593201	     15.2824879702	     50.8636256160	      6.9648648870	     21.9265701844	      1.7676394247	      8.2243266093	      5.7936758514	      7.4791120322	      2.7379307982	      2.8973633312	      3.3293798869	     12.9396038533	      4.1434496012	      9.0178896256	     26.1320602094	      3.7391655152	     25.7123187804	      5.0978744623	      4.1038761394	      3.4926032597	      4.9098774045	      3.2186214663	      4.1061298535	      1.8935046159	      5.8157594009	      8.2717282655	      5.5697439874	     90.0315862502	     99.6211007131	     16.6317844131	      2.7468111323	      8.2539401278	     54.9558316635	     13.0039565342	     13.7141201173	     18.7748038568	     15.6106281790	      6.8568621916	     35.5152569495	     15.9211490507	      4.6610256479	      3.9166365303	     89.3941384504	     14.4274385024	     50.8882169823	      5.1583603209	     14.2917138134	      1.7290091984	     25.0859119863	     25.3041789613	     22.3979995080	     44.7815636403	     16.0115442651	     62.2911990379	      4.6775819558	    725.3135951879	    -18.7769332246	     -3.7554712224	     -1.2680416470	     20.9327647593
      0.7000000000	      8.2069443891	      5.7665998549	     16.2660091586	      2.7198661544	      2.8759022096	      3.3577615605	     12.9028552253	      4.1195774586	      8.9872988056	      8.4029809285	      5.0603246323	     42.6375035224	      7.4125667372	      5.9245857745	      3.6062625920	      4.9064092015	      4.3198165315	      5.8613066029	      2.2029777272	      5.7918806052	      8.2716583421	      5.6148256971	    129.6847033263	    145.8387278752	     38.0528857886	      5.4510866412	     21.6735390757	    225.8832688284	     18.7437455440	     20.1153388198	     29.0419788854	     15.5984962220	     35.5096456110	     15.9126981257	      4.4903216358	      3.8741643610	    103.5932381851	     14.8529786739	     50.3628416447	      6.3317736240	     19.1990475746	      1.9037377012	      8.2094491515	      5.9333389547	      9.4007565750	      2.7933539912	      3.1338305682	      3.9120250957	     12.9339605770	      4.1409659195	      9.0142803520	     33.0300099500	      4.2921848162	     12.3733844319	      4.4941053464	      3.9161190709	      3.4742890201	      4.9019427827	      5.2469500158	      3.7906107789	      1.9191707313	      5.9184497591	      8.2957130391	      5.5599716568	    101.5272255136	    111.0188178486	      7.4375575307	      2.5014845221	      8.4542654376	     47.8436140241	     12.9830466611	     13.6930369435	     18.7531622939	     15.6130587047	      6.8585387478	     35.5148498303	     15.9207371478	      5.0001555990	      4.3050109406	     87.2403593153	     14.4395325689	     50.9242058838	      5.0885755403	     14.7071798316	      1.8788490945	     25.1261476977	     25.1469723097	     28.1861691779	     33.5311699161	     34.3506388185	     36.6943489966	     -6.7983628869	    721.3117110269	      2.5205353374	     -1.0725172214	      0.0841512863	     15.5620021401
      0.7200000000	     20.5408316669	     10.2160475222	     13.5435597426	      4.3736303720	      5.0654831587	      6.0300391489	     12.9091930207	      4.1205839749	      8.9834477947	     17.2622194451	      5.9777879286	      6.3400978698	      4.3175940814	      3.8300719697	      3.4468399270	      4.8968685533	     11.5498804462	      2.7425013190	      1.6421118111	      5.8276589709	      8.2333174172	      5.5352864718	    113.0343902762	    123.1118641568	      3.8650680509	      1.8653846949	      9.5130219545	    179.3986780939	     13.0126462313	     13.7208786791	     18.7897476934	     15.6039529091	     35.5120416094	     15.9159297854	      4.1454623591	      3.6047049072	     96.8667757281	     15.0191286884	     52.2835790709	      5.9557877851	     16.9629299708	      1.7133986467	      8.3919663835	      6.2720948420	      8.6695204837	      3.0212819448	      3.3260732979	      3.9585893122	     12.9414508133	      4.1383675052	      9.0056333949	     35.6914483046	      4.2026990651	      6.5314257704	      4.3295775290	      3.8414417612	      3.4556285719	      4.9034551839	      6.0490261192	      3.0174881229	      1.6962373070	      5.8276588657	      8.2437364849	      5.5420503918	    102.5290436420	    111.1598651624	      4.2725733173	      1.9557112138	      7.1476118090	     36.5449974167	     12.9858949722	     13.6959708380	     18.7568283151	     15.6160299088	      6.8609521921	     35.5167142769	     15.9231739158	      4.5461403132	      3.8551631136	     86.9717369521	     14.3250435891	     50.8141131214	      4.9374425242	     14.1463029067	      1.7150699132	     25.1460502883	     25.0929722452	     38.6150667393	     29.8054470902	     55.3152401836	     23.5778107854	     -9.7577122844	    725.4181892912	     18.0253912908	     -0.1855597583	      1.3475386158	      9.1969169237
      0.7400000000	     58.0684141887	     23.2944472178	     23.8340771871	      7.5546615318	      8.5615789615	      9.7166669045	     12.9176919653	      4.1241088057	      8.9853500206	     47.2769572203	      7.5976768261	      6.3006892284	      4.3107018071	      3.8252730520	      3.4436917539	      4.8949810680	     14.7042454557	      2.7099554989	      1.6423920970	      5.8351302183	      8.2321332367	      5.5330921876	    114.6061478045	    125.5015428061	      3.8422188301	      1.7173743181	     11.7505623147	    130.3195246912	     12.9920931686	     13.7001518449	     18.7637059821	     15.6090424771	     35.5130926695	     15.9171278740	      3.8317165699	      3.4375023272	     93.6744475714	     15.3515585592	     54.2114934687	      5.7537936452	     16.4778811424	      1.6824014623	     16.0538934589	      8.5684311077	     12.2750392924	      3.5087371774	      3.9456980254	      4.6544641751	     12.9496488527	      4.1422508272	      9.0070672205	     36.8543415947	      4.1331089167	      6.3587335208	      4.3289216424	      3.8379433821	      3.4542745306	      4.9039285672	      6.9673320115	      2.7619557016	      1.6637718018	      5.8235544688	      8.2412226102	      5.5398775384	     96.3600169816	    104.2807629659	      3.8901404747	      1.7490091520	      7.4310300884	     25.4114614641	     12.9854214656	     13.6954193898	     18.7564698913	     15.6168847696	      6.8616705979	     35.5169833918	     15.9236388490	      4.2874871176	      3.5934350201	     87.1251525981	     14.3875037519	     51.1013964168	      4.8986466351	     13.9957885594	      1.6827400070	     25.1401786048	     25.0712371527	     50.4317631646	     32.2087009151	     74.2161311644	     21.0800004377	     -7.9837813625	    735.0689628887	     23.4685000885	      1.5933620284	      1.8251456622	      2.8916927462
      0.7600000000	     58.8122241548	     26.1075101924	     29.9600242314	      7.6569504131	      9.0622844198	     10.8260281639	     12.9281149096	      4.1281308355	      8.9882160535	     71.0178178113	      8.8207379254	      6.2943968412	      4.3077020275	      3.8233991989	      3.4421237631	      4.8935170008	     15.7625585020	      2.7037690377	      1.6438258885	      5.9283387972	      8.2355490051	      5.5323559506	    118.5832325215	    131.3281311260	      3.8422734663	      1.8450556998	     14.8243530799	     89.8165885332	     12.9751486180	     13.6838294787	     18.7457591759	     15.6137931889	     35.5134484888	     15.9176744809	      3.9585418545	      3.5807287631	     92.4910941862	     15.4524680468	     54.8404952036	      5.6067881108	     17.9491663575	      1.7492855450	     29.0558874487	     13.8601259865	     17.6676079254	      4.6054981312	      5.1535607849	      6.0099100826	     12.9428571341	      4.1337133799	      9.0022377971	     37.3212416918	      3.9501677218	      6.3354588757	      4.3201800147	      3.8327175138	      3.4508824077	      4.9028969211	      7.1743624083	      2.7535637829	      1.6594014177	      5.9682216149	      8.2534842360	      5.5384090195	     86.8633815484	     94.1190084489	      3.8830234334	      1.8320061994	      8.5318229533	     15.2577358619	     12.9885720307	     13.6984551131	     18.7599568576	     15.6148412113	      6.8596792355	     35.5165036103	     15.9227150134	      4.4880140810	      3.8517038147	     87.0368122303	     14.5835275238	     51.9296412253	      4.9075365985	     14.7740232924	      1.7360127485	     25.1222936607	     25.0605827150	     60.3751647107	     37.1189671342	     88.2845758605	     24.0573643911	     -5.7734861444	    746.6806583952	     20.2640626135	      5.2261967281	      1.5206901094	     -2.6358490688
      0.7800000000	     43.9188485311	     23.1489268426	     31.3324022530	      6.2486037220	      7.9364527328	     10.2182459121	     12.9386984879	      4.1320936936	      8.9917823584	     85.6925100353	      9.4769041489	      6.2932564685	      4.3071220871	      3.8231408593	      3.4417805292	      4.8929723774	     15.4152007824	      2.7024904413	      1.6457395767	      5.9037959509	      8.2360356380	      5.5324324101	    121.1894539234	    135.6250184469	      3.8472409521	      1.9812989459	     16.7726822916	     57.9501872867	     12.9687943689	     13.6777986883	     18.7390271001	     15.6174045585	     35.5136307618	     15.9182387392	      3.8160636773	      3.5304229916	     93.4015186888	     15.4761368628	     54.8876194595	      5.5370490897	     19.5473757459	      1.7832712186	     44.3130786972	     19.3295050495	     21.4268486727	      5.6410876139	      6.2053627699	      7.0454618199	     13.8821123523	      4.2790970393	      9.1027691221	     48.1440923306	      3.5491489473	      6.3131778932	      4.3189921242	      3.8327496198	      3.4519516544	      4.9063155068	      6.5487217568	      2.7312052365	      1.6858070005	      6.2289021743	      8.2745343533	      5.5402281066	     70.1939749035	     76.0578615503	      3.8665466357	      1.7849175587	      8.5486067744	     11.7965169110	     12.9696109148	     13.6794578954	     18.7407233938	     15.6248802638	      6.8675395835	     35.5164362678	     15.9226594885	      4.4945308271	      3.8600764641	     87.2892110272	     14.8230433589	     52.9410850518	      4.9240731311	     15.0358344540	      1.7410270686	     25.1111345686	     25.0553360625	     66.9014526841	     41.2423549003	     97.1253834118	     27.4119576750	     -6.3237361300	    757.8032104470	     14.2188069865	      9.2207535802	      0.8870657276	     -7.4526235560
      0.8000000000	     34.5193298563	     21.6650243236	     32.8904773475	      5.8254485182	      7.5084279063	     10.0577481803	     12.9918634261	      4.1677368765	      9.0359483652	     95.8772146774	      9.8829445043	      6.3215345136	      4.3282838688	      3.8398369719	      3.4565592988	      4.9093175364	     15.0481044609	      2.7632694224	      1.6893114196	      6.4413309632	      8.3138626842	      5.5491982179	    120.7004168058	    136.3487907416	      3.9114610120	      2.5040895833	     18.3394968815	     29.8314952186	     12.9998472063	     13.7080410063	     18.7697543790	     15.6709454362	     35.5458719751	     15.9700585790	      4.2281488427	      3.8983065282	     94.9289909656	     15.7852775361	     55.4851565326	      5.6489125070	     21.9735979125	      2.1439554622	     54.9308905284	     21.7104140891	     20.4125917908	      6.7121969163	      7.1001710755	      7.6938350104	     28.2933473574	      5.3182501252	      9.9502200294	     47.5442630442	      3.3048034843	      6.3574715520	      4.3444910455	      3.8540629195	      3.4731733683	      4.9390169432	      6.1865578455	      2.8702016911	      1.8485560519	      7.6954216172	      8.5713323862	      5.5660977433	     55.0539449127	     59.2096966830	      3.9898345991	      1.9956639170	      8.2114012346	     11.8400608454	     13.0181810426	     13.7281846748	     18.7945794097	     15.6968228875	      6.9287854653	     35.5518396168	     15.9773022829	      5.0250582204	      4.4300608383	     86.4975830402	     15.0799280656	     53.3809421064	      5.0464227434	     16.0739525225	      2.0130280471	     25.2706226103	     25.1258911524	     69.9709311132	     42.7910945485	    101.6689091043	     28.2239321506	    -11.3022752213	    767.6941475757	     11.1796712169	     11.3107396938	      0.1961967447	    -12.2587590373
      0.8200000000	     35.0869543508	     22.8532398188	     34.8551595575	      5.8132061204	      7.5218048496	     10.1927528772	     20.1604410416	      4.8756702430	      9.4780820832	    120.4008258870	      9.6570497062	      6.3644162768	      4.3642119974	      3.8690871101	      3.4836415951	      4.9408721178	     13.3838662455	      2.8351275475	      1.8310948530	      7.1097968014	      8.4729966432	      5.5812338230	    105.5888390223	    120.5686997633	      3.9988615712	      2.6104105746	     18.7493531756	     12.0745323615	     13.0255628571	     13.7335822738	     18.7950993000	     15.8157827252	     35.5961526136	     16.0520490692	      4.2511708459	      3.9624973843	     96.9494908374	     16.0861342225	     56.1588322316	      5.7605676302	     23.7862697759	      2.2974181213	     55.6901406412	     19.5383165024	     14.3028888372	      6.6728245110	      6.8028816935	      7.0239477454	     47.8744021202	      6.4148132436	     11.6370476434	     40.0597199195	      2.8521196871	      6.4055191374	      4.3816901502	      3.8914593305	      3.5081184494	      4.9741487527	      5.2864148206	      2.9766100578	      1.9313211333	      7.9929841284	      8.9737999983	      5.6207518817	     38.0467187646	     40.1838149448	      4.0971389158	      2.0296371216	      6.9716568351	     11.8970676469	     13.0779834855	     13.7881800507	     18.8642845054	     15.7719293089	      6.9931710872	     35.6114153802	     16.0725377809	      5.1572531605	      4.5836609358	     85.7372569222	     15.0847856851	     53.0379889596	      5.0568110277	     16.3554948706	      2.1084218519	     25.5397858679	     25.2369273643	     70.0280684471	     41.6080977299	    102.5288365543	     26.2308195950	    -21.1922002561	    776.3364589399	     12.6387148094	     10.8977948089	     -0.6291627441	    -18.1331311310
      0.8400000000	     29.2771560889	     21.2291910368	     33.9488622269	      4.6031111143	      6.2811595048	      8.9880594662	     97.5551624732	      7.8196079681	     13.5569195531	    127.7052820699	      8.3271964112	      6.3297914314	      4.3391877282	      3.8500214049	      3.4665706508	      4.9221462580	     10.2712090870	      2.7601539110	      1.7448207548	      6.6846912353	      8.3927400193	      5.5635631068	     80.9308171716	     93.8709161293	      3.9428101830	      2.2328152413	     17.5616533283	     11.7827185457	     12.9861809487	     13.6953759457	     18.7553877610	     15.7555104895	     35.5551122268	     15.9862948149	      3.6117536432	      3.5146289165	     96.4182637855	     15.4968942050	     54.3245293772	      5.5422157705	     24.3847275821	      1.9911062369	     46.6401055168	     10.6874561514	      7.3757327556	      5.2647346339	      4.9081772794	      4.5500589423	     67.7179220919	      7.2794634837	     14.9482913272	     30.0739890891	      1.9833654236	      6.4827228676	      4.4096343795	      3.9023064024	      3.5192149071	      4.9893516562	      3.4184211614	      2.8089091227	      1.7657337634	      6.3667705650	      8.5675543219	      5.6097992342	     19.5947371767	     19.7009927196	      3.9293331889	      1.7755694699	      4.9074185626	     11.8480017363	     13.0775585620	     13.7859661523	     18.8599699556	     15.6794607033	      6.9158308759	     35.5666434027	     16.0027850506	      4.5547965229	      3.9886484448	     84.9105389527	     14.5501034839	     51.6812985233	      4.7742146581	     15.3729585135	      1.8246241812	     25.3377932585	     25.1467705369	     67.4138597010	     38.9609643686	     99.2065144412	     23.3566144770	    -37.2439622793	    781.9495717284	     14.3985992013	     10.1223206661	     -1.6400722646	    -27.6348927630
      0.8600000000	     14.2520004181	      9.5163326831	     13.0107291064	      3.6110689882	      4.0956100724	      4.9846284825	    194.0352549766	     21.1207593790	     69.4716962835	    112.2633271573	      4.6603651686	      6.3699092088	      4.3394962767	      3.8536349213	      3.4673781003	      4.9245096767	      4.2321041374	      2.7328063692	      2.2462927013	      6.3444514086	      8.3931740753	      5.5673159046	     47.8838362141	     54.4888051072	      3.8794360860	      1.9882713926	      8.0550702701	     11.7287659905	     12.9699739521	     13.6797068045	     18.7393002715	     15.7092298739	     35.5332337992	     15.9513795297	      3.4774734144	      3.4400098173	     89.7510711023	     13.8299450179	     48.0577023845	      5.0726603516	     24.4516357292	      2.0925462576	     45.5646242843	      5.8026357879	      6.5663657444	      4.9346846371	      3.2533933364	      3.2886039383	     87.7553014526	     10.6406143988	     19.8531073952	     12.8516380425	      1.6418750221	     16.3894570914	      8.1419355637	      5.2164374795	      5.3205872703	     12.2997892590	      2.5162360988	      3.3149370529	      1.9090786836	      5.7747355602	      8.2403299742	      5.5976454316	     13.5818493922	     12.3402400785	      3.8428104624	      1.6709893186	      4.4766216423	     11.7968987657	     13.1808518559	     13.8872536906	     18.9759609304	     15.6327355373	      6.8766880323	     35.5387919847	     15.9586221720	      4.5045494815	      3.9870143640	     82.5956941872	     13.8943682319	     49.3266865505	      4.5744114403	     15.1379723055	      1.8419004984	     25.2164830538	     25.0974067482	     62.4983428141	     37.1574559086	     91.1342055764	     23.5332791505	    -57.5373686025	    781.1505522494	     10.8673959130	     11.2928635487	     -2.4075495993	    -41.8852890183
      0.8800000000	      8.3221171351	      5.8121966377	      6.6402665380	      2.7451014448	      2.9022481444	      3.2961558337	    319.6619770499	     38.6522613618	    143.6091676562	     91.9695851778	      1.6610541709	     23.6654958210	     10.6308561398	      9.3751244569	      7.0024086129	      8.5437339598	      2.3615943443	      3.2950262114	      4.9101105939	      5.8523209891	      8.4581324337	     11.5701754752	     11.6092996769	     11.9477452506	      5.2734499547	      1.7619905375	      4.5723308714	     11.7075757587	     12.9606538535	     13.6706047156	     18.7302427599	     15.6850015734	     35.5204926998	     15.9307399926	      3.2155622293	      3.3027144271	     77.2999058988	     11.2813668207	     38.7650564863	      4.2634486567	     22.8177991518	      1.9120415616	     52.5699167135	      5.7612781710	      6.5450511853	      4.9788275682	      2.9388764364	      3.2596361576	    102.5719575488	     12.4023608155	     20.8247383847	      8.7758477497	      1.5896653860	     29.6255725977	     14.6654021951	      8.3363025533	      8.8902886109	     21.5523189703	      2.3864198572	      3.2511159990	      1.7413459231	      5.7514612506	      8.2174321633	      5.5646954231	     11.4240211430	     11.3906303646	      3.8261359868	      1.6554936637	      4.4562423603	     11.7561362449	     13.3236866787	     14.0376589765	     19.1794272900	     15.6108813189	      6.8573593353	     35.5205504623	     15.9295808334	      4.0919152035	      3.6359352573	     80.3697515569	     13.1483339473	     46.6439514549	      4.3004523667	     14.1207065893	      1.7086089546	     25.1201147830	     25.0669932449	     55.9184871995	     38.2571341314	     78.2953837207	     29.8778450814	    -77.0105345056	    770.0535678736	      0.7616630113	     13.7009474220	     -2.7873864956	    -59.8629967571
      0.9000000000	      9.9352277211	      6.3351760134	      6.8963307199	      3.1634165938	      3.2324169960	      3.5658651408	    435.9419787066	     52.6229730103	    197.7316721975	     96.8786086798	      1.6487110188	     20.8017874674	     12.7351435873	     12.4953813480	     11.8007717272	     23.1561393468	      2.3623001394	      3.5816687088	      5.9565014201	      7.3165214478	     15.6930561944	     26.6341723430	     10.8156603540	     11.2116437620	      4.6881223499	      1.8509364608	      4.6928506375	     11.7036377855	     12.9586848568	     13.6686475984	     18.7286367549	     18.3673792877	     35.5290045727	     15.9396659831	      3.5241275017	      3.5174175676	     65.2485997100	      9.9295341872	     32.2176920133	      3.8905453432	     19.4190721132	      2.2109598516	     63.3091727410	      5.7500655104	      6.5399440647	      6.2473057397	      3.0130957735	      3.2491816013	    115.8087365525	     13.8718611418	     17.8226616752	     10.4496499640	      1.6154491270	     39.9908494578	     18.9023270228	     10.5106461946	     10.8063149202	     25.3862650354	      2.4543966147	      4.2699666264	      1.9765431768	      5.7437905653	      8.2075341834	      5.5541326083	     17.6150867305	     12.7271997880	      3.8213555135	      1.6518470364	      4.4508997505	     11.7726130439	     14.1150275049	     14.8261649177	     20.1124255168	     15.6147775934	      6.8591382385	     35.5211963290	     15.9321411698	      4.6349294350	      4.1931170619	     76.7102137509	     12.5778553583	     43.9891672378	      4.2396822162	     14.5256951621	      1.9593039152	     25.1006542640	     25.0797209500	     48.8844255225	     42.9584756125	     62.4557308533	     42.9539789380	    -83.9796844205	    750.7223151507	    -11.0993752354	     13.3531336335	     -3.3049110971	    -73.7925452534
      0.9200000000	     20.1432662905	     10.1088122255	     10.6556599911	      3.0850052982	      3.2458736939	      3.6894098422	    551.5851267008	     66.2187766529	    250.1209685764	    116.1321015914	      1.5903288455	      6.3747723103	      4.8979594181	      5.9110524275	      7.5514547904	     22.3821872723	      2.3527800816	      2.7492661070	      5.9015785584	     15.6253734363	     38.5746469155	     28.5488858665	     10.7999214262	     11.1995743217	      4.0132905098	      1.7199329715	      4.7908244446	     11.7006752140	     12.9542203591	     13.6641102952	     18.7247480903	     38.1301520666	     35.5213085896	     15.9313675595	      3.6496541811	      3.4850951483	     73.7471402320	     11.1527387406	     38.5326541607	      4.2012053676	     14.8458440446	      1.7549834249	     77.5975915422	      5.7467467025	      6.5382989864	      7.3682132397	      2.9039878806	      3.2472282082	    122.7529506987	     13.9772485099	     10.6512243683	      9.6473162976	      1.5867119868	     45.4464705119	     20.5442932374	     10.1230743871	     10.6924443986	     26.3946290349	      2.3818691590	      3.9892236158	      1.7072099065	      5.7413828691	      8.2040513208	      5.5381493074	     27.1990375271	     14.0829167855	      3.8198903292	      1.6499791351	      4.4493579954	     11.7423727333	     13.1380981393	     13.8442993975	     18.9336679349	     15.6142531261	      6.8603245169	     35.5232692802	     15.9341412008	      4.1548823255	      3.7321300469	     75.3867833798	     12.1100589011	     42.7833659733	      3.9678245976	     13.2617549594	      1.7346859302	     25.0812096832	     25.0973707043	     43.0101444028	     49.8713935344	     47.2070451080	     59.4533227527	    -84.2971258790	    723.5194047316	    -20.5157674647	      9.5648660076	     -5.2827805027	    -86.3822650403
      0.9400000000	     28.6710316390	     27.5616782525	     46.2773641303	      4.1098107890	      5.3447770877	      8.0702870157	    595.2325342390	     69.1442349747	    262.7074538677	    149.3969768307	      2.1517710318	      6.2925984275	      4.3223125009	      3.8550791174	      3.5005004357	      5.2495843673	      2.4051443302	      2.7334826408	      4.1219640478	     31.3565795160	     56.1531655620	      7.4294899909	     10.7802793286	     11.1820912607	      4.8881643676	      2.4485400870	     16.3794733480	     11.6989500104	     12.9503365577	     13.6601313066	     18.7210018331	     66.5054946893	     35.5139226784	     15.9187369963	      5.9422791777	      4.9234655185	     96.8845049043	     15.2604471278	     52.9569696325	      5.6918589379	     14.2801038285	      1.9509249734	     94.3655563880	      5.7423701835	      6.5360702908	      9.0678654292	      2.9642786654	      3.2416668628	    126.4534777476	     13.6381181827	     10.4134529974	     11.8100105566	      1.6382592551	     43.7548197561	     19.5269711015	      8.5780039021	      9.4463175905	     26.4720269072	      2.5258777453	      4.6324364038	      1.8433550870	      5.7382137995	      8.2000307450	      5.5338832922	     36.0138955742	     20.0132934578	      3.8172990669	      1.6473841166	      4.4468441108	     11.7699690333	     14.0966572939	     14.7924391570	     20.0331781226	     15.6123721459	      6.8455270673	     35.5137351497	     15.9170290334	      4.8932188878	      4.4605674811	     73.3824002649	     12.3094409891	     42.3195276885	      4.1874034104	     14.2120747451	      2.0836811903	     25.0693048019	     25.1173258326	     39.8746488801	     56.0646216009	     37.0028127408	     73.2937547060	    -75.3721281188	    702.9478911770	    -24.3085765550	      3.6820493827	     -7.7731391406	    -89.8330192638
      0.9600000000	     25.6731762566	     37.4840276563	     72.1251784865	      3.2883853763	      6.6769947002	     12.6258707263	    487.8450066952	     53.2607632890	    195.0144259004	    180.9012260821	      5.8575556428	      6.2844016529	      4.3044415367	      3.8235499629	      3.4431538264	      4.8975624708	      2.6087245585	      2.6846628512	      1.7329825062	     31.4258472449	     32.8714634595	      5.5429709680	     13.0047322533	     23.5710656816	      3.9656101935	      2.9762635475	     30.9292944780	     11.6989721657	     12.9478958532	     13.6576695482	     18.7184651726	     84.4095895793	     35.5087686448	     15.9111537849	      7.2499501289	      4.6503160495	    121.8143391038	     18.7820072864	     65.7307038570	      6.9938560892	     14.1052552177	      1.6651472529	    110.7247491935	      5.7414304470	      6.5356491889	     10.0817693559	      2.8894958923	      3.2419536279	    135.2318501104	     13.1973983845	      9.1433603767	      8.3361319304	      1.5832968046	     41.0749068366	     19.9965525420	      7.1785044115	      9.3036222824	     31.5823969280	      2.3748238712	      3.3010560247	      1.6483451270	      5.7377553458	      8.1995543252	      5.5311574109	     28.1841824863	     11.7453798334	      3.8168906704	      1.6472311893	      4.4464593480	     11.7420864527	     14.2359124120	     15.1669998013	     21.6847458919	     15.6115925990	      6.8580664818	     35.5230047631	     15.9335213638	      3.9033435538	      3.4937182090	     75.9728793578	     12.4272413870	     44.0594311180	      3.9696516009	     12.8527241112	      1.6895708523	     25.0659404818	     25.1133437340	     40.5258295648	     58.7167453780	     35.4548239671	     78.8467880340	    -55.9029071600	    702.3036776936	    -21.9269776728	     -1.0136384945	     -8.3013205834	    -77.4602603716
      0.9800000000	     10.1847044554	     25.8197217164	     59.4875987228	      3.3748700907	      5.2161141404	     10.1027014102	    252.1969168998	     25.1047557227	     88.0715524541	    139.2027838941	      7.0480453620	      6.2872205861	      4.3052945750	      3.8236765080	      3.4426314495	      4.8950140050	      5.1714719353	      2.6889968603	      1.7047360989	     18.2353727029	     11.2550364150	      5.5388073202	     54.6562525577	     70.1919780665	      4.9963769675	      3.4969473261	     28.6217009748	     11.7040010122	     12.9501574264	     13.6598663449	     18.7209055326	     48.0200162568	     35.5132349912	     15.9177338554	      5.7739452019	      4.6168712173	     96.1817233479	     15.5806024174	     54.8845387320	      5.7151573860	     13.3255809621	      1.7549777345	    116.3352910818	      5.7400515512	      6.5350151247	      9.8089411225	      2.8813960893	      3.2404115261	    188.5483719086	     18.4843381435	     15.8914421273	      8.6173527634	      1.5805549526	     34.4900646679	     21.1208759319	      8.2733605695	     11.0065462080	     40.9710392459	      2.3622698951	      3.6559011100	      1.6491347130	      5.7370967466	      8.1990590588	      5.5313674828	     11.8915695827	     11.2532864913	      3.8162350253	      1.6466052059	      4.4457504922	     11.7295083490	     23.6737757358	     26.2290949465	     42.9689253522	     15.6102523615	      6.8574951267	     35.5227112196	     15.9330290054	      4.5145402189	      4.0633627036	     77.0547750830	     12.7848310742	     45.2176170771	      4.1733131900	     14.8414730781	      1.8796944150	     25.0687933477	     25.0984098404	     45.1366572874	     56.9683563756	     43.4444252056	     74.3317128236	    -29.0067779373	    721.0805347777	    -12.7208243655	     -3.1488280131	     -5.5488738965	    -50.9951267422
      1.0000000000	      8.2194817718	      5.9360723540	     19.6590511870	      2.7482720216	      2.9876373997	      4.0237877123	     12.9060128075	      4.1171323145	      8.9824184005	     55.2326326524	     10.0304954236	      6.3346283173	      4.3038396540	      3.8203121382	      3.4401151958	      4.8903462120	      9.8333624060	      3.0071859892	      1.6378256348	      5.8889099604	      8.2558283592	      5.5319612024	    170.6839608797	    194.8502599442	     18.4775965618	      4.9433958372	     22.0294800716	    112.9310844540	     12.9628599302	     13.6724234818	     18.7348482240	     15.6342013237	     35.5174386563	     15.9246218938	      4.7554184571	      4.1786017577	     80.9027577921	     13.2338441705	     46.1555998612	      4.9056368853	     13.7828442499	      1.8692145314	    114.5602289317	      5.7386904623	      6.5344109393	      8.3062222701	      2.8734591701	      3.2388156117	    269.7688557757	     27.1811067409	     56.0778600987	      8.3497721057	      1.5783264151	     27.6767252783	     24.5240945001	     11.4735032948	     15.0478043052	     56.2457559767	      2.3513631819	      3.5186150942	      1.6541932425	      5.7364616024	      8.1985607682	      5.5320416864	     10.8159012971	     11.1870542335	      3.8156286047	      1.6459385811	      4.4450713423	     11.7185880373	     43.0476597812	     48.6082589485	     84.8359757239	     15.6084459893	      6.8554160433	     35.5218424249	     15.9321126235	      4.4742718652	      4.0677356787	     79.0641440976	     12.9676364330	     45.4425558829	      4.2873038806	     15.9471029926	      1.9821117665	     25.0778560195	     25.0810304700	     52.2837747486	     52.2110779479	     57.7552947631	     62.9446680780	      3.0443900935	    748.0596831883	      2.8056146154	     -4.1128469979	     -0.2321567208	    -16.4240686133
