Static Optimization
version=1
nRows=51
nColumns=98
inDegrees=no
This file contains static optimization results.

endheader
time	glut_med1_r	glut_med2_r	glut_med3_r	glut_min1_r	glut_min2_r	glut_min3_r	semimem_r	semiten_r	bifemlh_r	bifemsh_r	sar_r	add_long_r	add_brev_r	add_mag1_r	add_mag2_r	add_mag3_r	tfl_r	pect_r	grac_r	glut_max1_r	glut_max2_r	glut_max3_r	iliacus_r	psoas_r	quad_fem_r	gem_r	peri_r	rect_fem_r	vas_med_r	vas_int_r	vas_lat_r	med_gas_r	soleus_r	tib_post_r	flex_dig_r	flex_hal_r	tib_ant_r	per_brev_r	per_long_r	per_tert_r	ext_dig_r	ext_hal_r	glut_med1_l	glut_med2_l	glut_med3_l	glut_min1_l	glut_min2_l	glut_min3_l	semimem_l	semiten_l	bifemlh_l	bifemsh_l	sar_l	add_long_l	add_brev_l	add_mag1_l	add_mag2_l	add_mag3_l	tfl_l	pect_l	grac_l	glut_max1_l	glut_max2_l	glut_max3_l	iliacus_l	psoas_l	quad_fem_l	gem_l	peri_l	rect_fem_l	vas_med_l	vas_int_l	vas_lat_l	med_gas_l	lat_gas_l	soleus_l	tib_post_l	flex_dig_l	flex_hal_l	tib_ant_l	per_brev_l	per_long_l	per_tert_l	ext_dig_l	ext_hal_l	ercspn_r	ercspn_l	intobl_r	intobl_l	extobl_r	extobl_l	normal_residual_FX	normal_residual_FY	normal_residual_FZ	normal_residual_MX	normal_residual_MY	normal_residual_MZ
      0.0000000000	      0.0111541177	      0.0742785555	      0.1605074157	      0.0136259557	      0.0304570361	      0.0583144247	      0.0100159719	      0.0100315140	      0.0100187454	      0.1161743277	      0.1066303957	      0.0100151777	      0.0100188147	      0.0100180596	      0.0100178548	      0.0100138205	      0.1017274073	      0.0100702130	      0.0100570367	      0.0316732341	      0.0101002946	      0.0100145129	      0.1705486056	      0.1970370024	      0.0135814455	      0.0393914142	      0.1229360711	      0.1073966216	      0.0100118619	      0.0100109725	      0.0100087994	      0.0101379750	      0.0100068106	      0.0100239277	      0.0150800535	      0.0125261125	      0.0998346576	      0.0368587967	      0.0608256597	      0.0317835056	      0.0311325792	      0.0113332770	      0.1512843078	      0.0100144892	      0.0100064294	      0.0321393915	      0.0100797218	      0.0100261210	      0.2184113046	      0.0671070675	      0.0636549932	      0.0104195561	      0.0101093113	      0.0331514484	      0.0531916916	      0.0254108451	      0.0402469020	      0.1176459735	      0.0100849900	      0.0122724097	      0.0101365617	      0.0100107527	      0.0100099685	      0.0100206144	      0.0100659978	      0.0100453896	      0.0100140807	      0.0100351951	      0.0100109016	      0.0100227574	      0.0329693618	      0.0350702045	      0.0458226178	      0.0100175800	      0.0100359529	      0.0100086083	      0.0100320183	      0.0136348841	      0.0120848786	      0.0904025955	      0.0309489988	      0.0503541018	      0.0245966304	      0.0343762251	      0.0122588740	      0.0100332696	      0.0100337591	      0.0566826449	      0.0529002161	      0.0598541812	      0.0667329277	      0.3321603408	     94.7539523681	      2.8503706831	     -5.6002223527	     -1.9026503573	     -8.0404239980
      0.0200000000	      0.0144392630	      0.0728771140	      0.1421879887	      0.0126007384	      0.0288749762	      0.0514210632	      0.0100252292	      0.0100457906	      0.0100287026	      0.0990102453	      0.0794055935	      0.0100180068	      0.0100230553	      0.0100226508	      0.0100229908	      0.0100185033	      0.0773226904	      0.0100801153	      0.0100741902	      0.0445905824	      0.0102715944	      0.0100197858	      0.1140027263	      0.1342843021	      0.0107407999	      0.0299796807	      0.1008795368	      0.0567175158	      0.0100152005	      0.0100142392	      0.0100110891	      0.0100306683	      0.0100061890	      0.0100217725	      0.0127840676	      0.0108500976	      0.1064076675	      0.0390877886	      0.0646796223	      0.0341080210	      0.0339347113	      0.0103842774	      0.1008858306	      0.0107636944	      0.0101075910	      0.0422622697	      0.0296395493	      0.0120839742	      0.0100404952	      0.0100789277	      0.0100300280	      0.0635257448	      0.0305735730	      0.0101458952	      0.0100644656	      0.0100532356	      0.0100515868	      0.0100362215	      0.0499836110	      0.0103665118	      0.0102446075	      0.0100470939	      0.0100200309	      0.0100143880	      0.1592894798	      0.1582072599	      0.0100778012	      0.0101935093	      0.0101646565	      0.0281920678	      0.0100253165	      0.0100239591	      0.0100179001	      0.0100314753	      0.0100593540	      0.0100081592	      0.0100291687	      0.0137360623	      0.0114046982	      0.0908241945	      0.0324190319	      0.0535466867	      0.0254223533	      0.0268240332	      0.0104355351	      0.0100263867	      0.0100457522	      0.0448486068	      0.0629763847	      0.0353111021	      0.0895597068	      9.7149655319	     91.5304743401	     -4.7541456400	     -4.4852924666	     -6.0832761921	      2.1022153125
      0.0400000000	      0.0112651266	      0.0453556518	      0.0950580278	      0.0117652717	      0.0177614999	      0.0317592539	      0.0100513534	      0.0100765989	      0.0100548937	      0.0702430686	      0.0488904213	      0.0100280903	      0.0100358718	      0.0100359507	      0.0100364533	      0.0100295209	      0.0447885627	      0.0101071004	      0.0101067756	      0.0349165332	      0.0131633182	      0.0100331179	      0.0669128610	      0.0799449850	      0.0143424078	      0.0216869257	      0.0664982847	      0.0178114436	      0.0100234335	      0.0100221089	      0.0100167487	      0.0100214651	      0.0100060102	      0.0100212545	      0.0131806305	      0.0112700433	      0.1091210909	      0.0391990379	      0.0645324752	      0.0350035483	      0.0376063280	      0.0109697362	      0.0838936366	      0.0306059211	      0.0203056653	      0.0573474369	      0.0513405602	      0.0410225223	      0.0100146669	      0.0100345188	      0.0100137177	      0.1345373287	      0.0726824091	      0.0198404873	      0.0100463397	      0.0100383130	      0.0100318627	      0.0100169499	      0.1047896196	      0.0167347063	      0.0118427560	      0.0100255808	      0.0100104007	      0.0100080427	      0.3751134930	      0.3816413347	      0.0104256931	      0.0108645148	      0.0277001912	      0.1370680557	      0.0100130605	      0.0100123597	      0.0100089427	      0.0100703156	      0.0101135108	      0.0100073931	      0.0100264577	      0.0152197329	      0.0124246797	      0.0966497699	      0.0342697937	      0.0564055474	      0.0281914899	      0.0281490175	      0.0109015663	      0.0100252337	      0.0100525708	      0.0396910992	      0.0651830912	      0.0269616413	      0.0946858676	     17.7303208045	     89.6432505280	     -7.9558462223	     -2.6707967805	     -8.2416871797	     10.8050911839
      0.0600000000	      0.0100354605	      0.0100800844	      0.0178612090	      0.0100880380	      0.0100949598	      0.0102032340	      0.0153318266	      0.0122032075	      0.0169237133	      0.0479251802	      0.0189528038	      0.0124886539	      0.0109769834	      0.0113813282	      0.0104403195	      0.0101182571	      0.0102467211	      0.0121253132	      0.0128196420	      0.0106494041	      0.0119025363	      0.0109327622	      0.0336872143	      0.0397866644	      0.0554500938	      0.0199165950	      0.0247991587	      0.0100953844	      0.0100273009	      0.0100258954	      0.0100193729	      0.0100187659	      0.0100060300	      0.0100217374	      0.0129110686	      0.0111928294	      0.1082738962	      0.0370365381	      0.0603088249	      0.0340144371	      0.0382086553	      0.0110715822	      0.0213182065	      0.0154851148	      0.0330290344	      0.0475572003	      0.0453701678	      0.0412653910	      0.0100112264	      0.0100270730	      0.0100112593	      0.1609140853	      0.0900736406	      0.0795710796	      0.0100535280	      0.0100414734	      0.0100308102	      0.0100142299	      0.1183493223	      0.0298677513	      0.0178609303	      0.0100215122	      0.0100088962	      0.0100072571	      0.4676401606	      0.4778318750	      0.0273986140	      0.0133399432	      0.0503202929	      0.1985346489	      0.0100114046	      0.0100107798	      0.0100077033	      0.0100635660	      0.0101035537	      0.0100063758	      0.0100234097	      0.0142246174	      0.0117424376	      0.1100771504	      0.0360533884	      0.0582955290	      0.0322706308	      0.0355352514	      0.0110570439	      0.0100293513	      0.0100415843	      0.0458676498	      0.0592396196	      0.0433956835	      0.0784957929	     23.0008743791	     89.7137695086	     -4.8546325139	     -0.1512354325	     -7.6145581945	     15.9806854487
      0.0800000000	      0.0100276857	      0.0100664130	      0.0102235386	      0.0100844116	      0.0100974578	      0.0101283089	      0.0111035165	      0.0112815569	      0.0216129138	      0.0292324801	      0.0122531224	      0.0631475676	      0.0351444471	      0.0391478087	      0.0183978986	      0.0101736329	      0.0101519286	      0.0177822597	      0.0165773096	      0.0101559993	      0.0104919909	      0.0326427185	      0.0297496195	      0.0345560853	      0.0791958699	      0.0210741918	      0.0143748602	      0.0101385028	      0.0100543475	      0.0100516898	      0.0100385587	      0.0100175163	      0.0100064937	      0.0100237059	      0.0116099432	      0.0105309528	      0.1046700188	      0.0336821601	      0.0541297635	      0.0317083763	      0.0355465721	      0.0104545257	      0.0100281953	      0.0100828483	      0.0371497185	      0.0103959212	      0.0111152069	      0.0179877191	      0.0100105305	      0.0100287051	      0.0100119939	      0.1456414076	      0.0848826366	      0.1975832566	      0.0111176866	      0.0101881092	      0.0100571087	      0.0100160929	      0.0884952152	      0.0537496430	      0.0420939820	      0.0100208232	      0.0100097260	      0.0100095549	      0.4737895243	      0.4877651902	      0.1161924939	      0.0327562908	      0.0755195526	      0.2345783409	      0.0100132476	      0.0100124664	      0.0100089413	      0.0100259764	      0.0100487867	      0.0100053332	      0.0100200499	      0.0114889923	      0.0104266705	      0.1295245119	      0.0385052050	      0.0607912580	      0.0380136082	      0.0463825862	      0.0105658535	      0.0100413603	      0.0100285643	      0.0616230486	      0.0499017268	      0.0794431027	      0.0500843701	     25.8915942670	     91.3136954323	      2.5382479574	      2.8796084420	     -5.2206308794	     18.6617486770
      0.1000000000	      0.0100230400	      0.0100535070	      0.0102273193	      0.0100697650	      0.0100795452	      0.0101080077	      0.0100953744	      0.0109685885	      0.0125976106	      0.0177452798	      0.0135754908	      0.0924780183	      0.0527327400	      0.0555529619	      0.0296746617	      0.0104494290	      0.0101377965	      0.0247466149	      0.0199352914	      0.0101628535	      0.0108604879	      0.0432110428	      0.0361799071	      0.0406837287	      0.0903475261	      0.0230219822	      0.0141454984	      0.0147232278	      0.0101557877	      0.0101474765	      0.0101073470	      0.0100169700	      0.0100069026	      0.0100255315	      0.0133883307	      0.0116284906	      0.0984598375	      0.0307291006	      0.0488078507	      0.0291774186	      0.0339062246	      0.0114693696	      0.0100150875	      0.0100479296	      0.0498411069	      0.0100815518	      0.0101244706	      0.0111552701	      0.0100106363	      0.0100321049	      0.0100138819	      0.1160304586	      0.0745327758	      0.2654307924	      0.0627557073	      0.0499562116	      0.0103028786	      0.0100194525	      0.0569287660	      0.0668902631	      0.0605108996	      0.0100236686	      0.0100123106	      0.0100148166	      0.4310412603	      0.4479924724	      0.1874795221	      0.0533295530	      0.0983555575	      0.2580747981	      0.0100175687	      0.0100164149	      0.0100119523	      0.0100153272	      0.0100305439	      0.0100044736	      0.0100170653	      0.0122881909	      0.0107697611	      0.1478947297	      0.0417194507	      0.0646942745	      0.0443210408	      0.0579918056	      0.0121781958	      0.0100767093	      0.0100211991	      0.0794447446	      0.0420013654	      0.1190620740	      0.0227662072	     25.4010357756	     93.2723883541	     10.1504156122	      5.7013431256	     -2.5750838903	     18.6897636485
      0.1200000000	      0.0100224692	      0.0100510540	      0.0104218905	      0.0100548357	      0.0100725710	      0.0101543027	      0.0100354166	      0.0111633922	      0.0113641729	      0.0187483824	      0.0159106178	      0.1009299991	      0.0556325775	      0.0558973407	      0.0294437707	      0.0108884642	      0.0102807539	      0.0273966622	      0.0212604358	      0.0102886908	      0.0109798443	      0.0348657646	      0.0459207219	      0.0501452920	      0.0867983026	      0.0232820047	      0.0150785390	      0.0248898021	      0.0105179439	      0.0104935114	      0.0103702809	      0.0100197092	      0.0100066861	      0.0100297816	      0.0151360956	      0.0131074940	      0.0923360565	      0.0293126511	      0.0455032888	      0.0277534554	      0.0320188233	      0.0128225955	      0.0100115844	      0.0100389704	      0.0642985434	      0.0100512840	      0.0100752868	      0.0106849505	      0.0100113313	      0.0100359107	      0.0100166833	      0.0788184099	      0.0634173525	      0.2793087585	      0.0898082080	      0.0837841847	      0.0203231607	      0.0100243783	      0.0330090902	      0.0688478103	      0.0649871615	      0.0100303823	      0.0100178840	      0.0100294616	      0.3636790806	      0.3825129866	      0.2317147009	      0.0670255281	      0.1138237017	      0.2733539336	      0.0100277395	      0.0100257258	      0.0100190281	      0.0100109886	      0.0100222792	      0.0100038717	      0.0100149234	      0.0135207259	      0.0113914192	      0.1595687218	      0.0440691842	      0.0675384047	      0.0489427724	      0.0632109661	      0.0138041226	      0.0118284712	      0.0100180402	      0.0864927079	      0.0334115922	      0.1472478841	      0.0110540307	     21.4272966953	     94.3492273705	     14.6427766157	      7.1594599225	     -0.4659472618	     16.9394511382
      0.1400000000	      0.0100250167	      0.0100575650	      0.0103415277	      0.0100759498	      0.0100815028	      0.0101294446	      0.0100660756	      0.0104066917	      0.0103118977	      0.0198058352	      0.0161938454	      0.0981145376	      0.0509234208	      0.0484222777	      0.0236544491	      0.0103109354	      0.0102698028	      0.0263673476	      0.0193779372	      0.0101907348	      0.0104140838	      0.0197452725	      0.0557978789	      0.0598234850	      0.0760920046	      0.0208892774	      0.0140396191	      0.0295179892	      0.0102657213	      0.0102521472	      0.0101849728	      0.0100214731	      0.0100078917	      0.0100307621	      0.0146165389	      0.0126159311	      0.0885646313	      0.0282114473	      0.0444359635	      0.0260534373	      0.0288875486	      0.0121117900	      0.0100103836	      0.0100364402	      0.0754939729	      0.0100414454	      0.0100566073	      0.0102104659	      0.0100123939	      0.0100392344	      0.0100210262	      0.0354931641	      0.0493774619	      0.2558909802	      0.0973932445	      0.0995593568	      0.0361470096	      0.0100327383	      0.0151480756	      0.0628228350	      0.0594129828	      0.0100446298	      0.0100330576	      0.0101992514	      0.2761828450	      0.2955990668	      0.2548139027	      0.0744258603	      0.1201974582	      0.2710401638	      0.0100941544	      0.0100859787	      0.0100633726	      0.0100100209	      0.0100208128	      0.0100039769	      0.0100152094	      0.0130851202	      0.0109949083	      0.1597470250	      0.0431435464	      0.0656947035	      0.0492114036	      0.0597397088	      0.0128130567	      0.0144546161	      0.0100183390	      0.0843186593	      0.0294169845	      0.1476091786	      0.0101815248	     14.5019714613	     94.0427028997	     14.7617888651	      6.6802366456	      1.1373781083	     13.6929528549
      0.1600000000	      0.0100330868	      0.0100643954	      0.0101973036	      0.0100937317	      0.0101036015	      0.0101378810	      0.0100677091	      0.0102173081	      0.0101442007	      0.0223123866	      0.0155002134	      0.0967391556	      0.0470565626	      0.0417460003	      0.0180912154	      0.0101355091	      0.0102804180	      0.0252327239	      0.0171088378	      0.0101178777	      0.0101383322	      0.0114875549	      0.0662307427	      0.0699329634	      0.0645138434	      0.0174031281	      0.0119802459	      0.0289164368	      0.0100825117	      0.0100782786	      0.0100573870	      0.0100224515	      0.0100083988	      0.0100308336	      0.0134020029	      0.0116441880	      0.0864573228	      0.0275049171	      0.0440253905	      0.0245686251	      0.0265055264	      0.0109588085	      0.0100104830	      0.0100369276	      0.0738513085	      0.0100392986	      0.0100529459	      0.0101213113	      0.0100136140	      0.0100418012	      0.0100259002	      0.0103149879	      0.0374733980	      0.2102010446	      0.0878160954	      0.0959481505	      0.0389008413	      0.0100426319	      0.0105082470	      0.0523725817	      0.0466252801	      0.0100635969	      0.0100679000	      0.0221302477	      0.1985147156	      0.2170586352	      0.2501765488	      0.0735621269	      0.1134261682	      0.2589895720	      0.0118121262	      0.0118529571	      0.0119692666	      0.0100101013	      0.0100210056	      0.0100043355	      0.0100165904	      0.0125081193	      0.0106886977	      0.1498006712	      0.0397536279	      0.0602738749	      0.0455986330	      0.0516467263	      0.0111209038	      0.0111405345	      0.0100216844	      0.0722065286	      0.0263353928	      0.1240578239	      0.0102894289	      7.2000313807	     92.7497681477	     10.9130945863	      5.1259416462	      2.0020936909	     10.3989053606
      0.1800000000	      0.0100366383	      0.0100651894	      0.0102246949	      0.0100866901	      0.0101074947	      0.0101756702	      0.0100614745	      0.0102617535	      0.0101380886	      0.0255907004	      0.0163971207	      0.1000555712	      0.0473126311	      0.0398063011	      0.0179323715	      0.0101576096	      0.0105781551	      0.0260188211	      0.0180011720	      0.0101287262	      0.0101321382	      0.0108408023	      0.0733903994	      0.0763911333	      0.0544269700	      0.0162193212	      0.0117308960	      0.0248561373	      0.0100999750	      0.0100946768	      0.0100691836	      0.0100243721	      0.0100081663	      0.0100301611	      0.0139585077	      0.0121593699	      0.0846404035	      0.0272760718	      0.0434447360	      0.0241569367	      0.0269121720	      0.0114899496	      0.0100122988	      0.0100423318	      0.0574543608	      0.0100441128	      0.0100588827	      0.0101483801	      0.0100160425	      0.0100478099	      0.0100325937	      0.0103528277	      0.0322975966	      0.1489047639	      0.0614786398	      0.0694613759	      0.0231496470	      0.0100527178	      0.0106571788	      0.0388608895	      0.0312065155	      0.0100978996	      0.0101613015	      0.0220347368	      0.1452801297	      0.1611588366	      0.2069485185	      0.0619416270	      0.0916648853	      0.2189199753	      0.0166995954	      0.0175327962	      0.0209676628	      0.0100107604	      0.0100222994	      0.0100047443	      0.0100181577	      0.0139226523	      0.0113627352	      0.1352670254	      0.0367394229	      0.0560930264	      0.0408250503	      0.0437743038	      0.0114380721	      0.0100749135	      0.0100280583	      0.0599208686	      0.0316199575	      0.0867535822	      0.0203684430	      1.5792568426	     91.4411122446	      4.6111955965	      3.9158354445	      1.8572897292	      7.3690716208
      0.2000000000	      0.0100384420	      0.0100691228	      0.0101165468	      0.0101251893	      0.0101260352	      0.0101421975	      0.0100763933	      0.0101791298	      0.0100974266	      0.0262420907	      0.0149242581	      0.1015804321	      0.0483068283	      0.0405029086	      0.0184934594	      0.0101191882	      0.0103829010	      0.0257673804	      0.0178676456	      0.0100828609	      0.0100708343	      0.0103155227	      0.0737317885	      0.0761811631	      0.0490437282	      0.0142526394	      0.0107156889	      0.0183445422	      0.0100660687	      0.0100628185	      0.0100470328	      0.0100245804	      0.0100088875	      0.0100326967	      0.0132717873	      0.0115814081	      0.0844974688	      0.0271032724	      0.0434960897	      0.0235981446	      0.0268637083	      0.0108949732	      0.0100202845	      0.0100633979	      0.0278223125	      0.0100709047	      0.0100918268	      0.0101694540	      0.0100197308	      0.0100531371	      0.0100339981	      0.0102267327	      0.0281820162	      0.0790100232	      0.0250213534	      0.0258705323	      0.0106034190	      0.0100520687	      0.0120607381	      0.0230966955	      0.0141899022	      0.0100947827	      0.0100910113	      0.0102130932	      0.1083591503	      0.1190015325	      0.1191723834	      0.0376110003	      0.0535585325	      0.1779796392	      0.0156267233	      0.0164946782	      0.0199403948	      0.0100122527	      0.0100253958	      0.0100054137	      0.0100202902	      0.0141996065	      0.0113431970	      0.1230157971	      0.0357480446	      0.0558366947	      0.0372708821	      0.0370606971	      0.0106977013	      0.0100493055	      0.0100383308	      0.0465418831	      0.0386187793	      0.0562224763	      0.0422764872	     -1.4611208493	     90.8906900949	     -1.9365059140	      3.5160447415	      0.9117839718	      4.5049393698
      0.2200000000	      0.0100451834	      0.0100758052	      0.0101014805	      0.0101405043	      0.0101430871	      0.0101513967	      0.0100913954	      0.0102146214	      0.0101139288	      0.0270003872	      0.0129170780	      0.0935500392	      0.0443138270	      0.0369896749	      0.0171377864	      0.0101323276	      0.0103066912	      0.0233702258	      0.0166622150	      0.0100800851	      0.0100639692	      0.0101663132	      0.0689233455	      0.0708019854	      0.0406868509	      0.0120642746	      0.0103292086	      0.0113830715	      0.0100582004	      0.0100553280	      0.0100418496	      0.0100240185	      0.0100087358	      0.0100319997	      0.0123196098	      0.0108938464	      0.0852661307	      0.0275481419	      0.0444406283	      0.0234903307	      0.0266768010	      0.0104558933	      0.0178430289	      0.0140784572	      0.0174974748	      0.0133797544	      0.0147050640	      0.0156417078	      0.0100239962	      0.0100539262	      0.0100285823	      0.0144020779	      0.0333867453	      0.0101243577	      0.0100825569	      0.0100654668	      0.0100600105	      0.0100407145	      0.0433740869	      0.0103415106	      0.0101637523	      0.0101350762	      0.0100554657	      0.0100323643	      0.0942321446	      0.0989629908	      0.0101844257	      0.0108178919	      0.0189607732	      0.1454985524	      0.0101302172	      0.0101213475	      0.0101000212	      0.0100139141	      0.0100285507	      0.0100058033	      0.0100212919	      0.0138895603	      0.0109622837	      0.1154553470	      0.0365735666	      0.0585347420	      0.0353626273	      0.0331182368	      0.0103541677	      0.0100341762	      0.0100476564	      0.0398171238	      0.0495793371	      0.0369820706	      0.0661947988	     -2.2948112057	     91.2903009750	     -6.6000082491	      3.1727444282	     -0.1535398733	      1.7115248488
      0.2400000000	      0.0100636405	      0.0100930280	      0.0101048808	      0.0101862746	      0.0101812701	      0.0101786614	      0.0110916250	      0.0111794502	      0.0104249847	      0.0398462839	      0.0119578030	      0.0739631330	      0.0339669729	      0.0272159819	      0.0135180494	      0.0101525606	      0.0103027164	      0.0186188065	      0.0164288222	      0.0100872923	      0.0100670353	      0.0101424094	      0.0588667163	      0.0598999862	      0.0250892012	      0.0109382808	      0.0102562589	      0.0100953829	      0.0100393472	      0.0100372772	      0.0100282497	      0.0100268672	      0.0100086446	      0.0100314687	      0.0121935635	      0.0108172101	      0.0861199712	      0.0284963530	      0.0462464344	      0.0238082449	      0.0271440827	      0.0104485967	      0.0738927584	      0.0418050133	      0.0365429751	      0.0284642135	      0.0303151504	      0.0301012436	      0.0100302092	      0.0100603399	      0.0100292241	      0.0547877949	      0.0464505211	      0.0100485747	      0.0100488660	      0.0100407800	      0.0100409236	      0.0100319249	      0.0614402731	      0.0101843003	      0.0101371369	      0.0102033823	      0.0100543418	      0.0100245177	      0.1004401258	      0.1060281373	      0.0100829440	      0.0104458065	      0.0254746474	      0.1084698636	      0.0100429437	      0.0100392152	      0.0100306797	      0.0100167801	      0.0100337814	      0.0100060468	      0.0100218578	      0.0135815131	      0.0108780538	      0.1119244901	      0.0377090434	      0.0613158859	      0.0343433056	      0.0327676372	      0.0103589284	      0.0100269117	      0.0100509256	      0.0393922226	      0.0612697750	      0.0291632206	      0.0869297188	     -1.9690105510	     92.3406152435	     -8.3285762481	      1.9402481511	     -0.7619418123	     -0.8951449341
      0.2600000000	      0.0102505108	      0.0101137140	      0.0100773480	      0.0112314492	      0.0105875342	      0.0102704598	      0.0206381266	      0.0132888705	      0.0107458409	      0.0398291617	      0.0124794042	      0.0450347698	      0.0172596616	      0.0123861399	      0.0110257352	      0.0102090378	      0.0113183512	      0.0143682601	      0.0135447164	      0.0100784916	      0.0100561170	      0.0100886534	      0.0536683173	      0.0526971150	      0.0103233438	      0.0104819758	      0.0101489106	      0.0100748781	      0.0100354122	      0.0100335347	      0.0100259232	      0.0100266971	      0.0100085526	      0.0100309057	      0.0132068496	      0.0115512668	      0.0864346935	      0.0296088515	      0.0483609325	      0.0242974248	      0.0284955360	      0.0108633085	      0.0823002110	      0.0515484422	      0.0506400086	      0.0312980928	      0.0348079611	      0.0364214506	      0.0100368435	      0.0100667965	      0.0100309137	      0.0880427921	      0.0571640403	      0.0100364235	      0.0100393961	      0.0100337466	      0.0100342793	      0.0100273580	      0.0702458262	      0.0101487637	      0.0101342437	      0.0104277896	      0.0100558058	      0.0100219011	      0.1081696547	      0.1156550832	      0.0100762424	      0.0111262097	      0.0349537128	      0.0788490694	      0.0100273053	      0.0100249177	      0.0100192212	      0.0100196706	      0.0100388091	      0.0100061773	      0.0100222583	      0.0138390327	      0.0114593911	      0.1108947691	      0.0382564482	      0.0625942876	      0.0336282597	      0.0355951169	      0.0106982488	      0.0100233740	      0.0100494280	      0.0419937893	      0.0704868487	      0.0281653307	      0.1014590007	     -1.5236546028	     93.5989218367	     -7.6172358461	     -0.2733188660	     -0.8232854802	     -3.1265286263
      0.2800000000	      0.0256207132	      0.0112910206	      0.0104523871	      0.0154748824	      0.0137760289	      0.0120805331	      0.0293844831	      0.0151728161	      0.0118697825	      0.0436172711	      0.0148605523	      0.0146233600	      0.0109052343	      0.0104667797	      0.0104017638	      0.0101764533	      0.0148714612	      0.0127120857	      0.0130257613	      0.0102783662	      0.0101346376	      0.0101036425	      0.0464348127	      0.0459531871	      0.0104629852	      0.0111621959	      0.0107788280	      0.0100474698	      0.0100280262	      0.0100266684	      0.0100213945	      0.0100395142	      0.0100114080	      0.0100411761	      0.0145758912	      0.0127151901	      0.0861152492	      0.0307022521	      0.0500523938	      0.0251193431	      0.0298436223	      0.0120217369	      0.0671914063	      0.0493311819	      0.0566690723	      0.0276016145	      0.0325991502	      0.0365889761	      0.0100599371	      0.0101017682	      0.0100472155	      0.1098116128	      0.0639132560	      0.0100459203	      0.0100507770	      0.0100443117	      0.0100446803	      0.0100354168	      0.0718255210	      0.0102098661	      0.0102202296	      0.0111356481	      0.0100883866	      0.0100299583	      0.1138605929	      0.1232227441	      0.0101298041	      0.0135057086	      0.0419807682	      0.0549793457	      0.0100305745	      0.0100279836	      0.0100213165	      0.0100289548	      0.0100561616	      0.0100085109	      0.0100310418	      0.0145183291	      0.0122604342	      0.1115451116	      0.0385420625	      0.0629223640	      0.0334472826	      0.0397060783	      0.0120373404	      0.0100308915	      0.0100714568	      0.0441522438	      0.0758374828	      0.0286145151	      0.1096264141	     -1.6612334942	     94.7763478671	     -6.0081967551	     -2.6041040561	     -0.5740278064	     -4.9981924089
      0.3000000000	      0.0451245408	      0.0203152485	      0.0134696887	      0.0177772000	      0.0169901635	      0.0153875753	      0.0402735324	      0.0148523466	      0.0124619282	      0.0478868452	      0.0148494457	      0.0103507468	      0.0102628252	      0.0102267061	      0.0102458891	      0.0102520853	      0.0164444934	      0.0106156439	      0.0111041375	      0.0112391117	      0.0103979470	      0.0101411534	      0.0346180228	      0.0352917191	      0.0104563946	      0.0111810518	      0.0123974525	      0.0101396384	      0.0100879230	      0.0100824813	      0.0100649656	      0.0100778108	      0.0100230789	      0.0100819570	      0.0138389274	      0.0120913203	      0.0863390378	      0.0312229694	      0.0511432393	      0.0248894914	      0.0290759949	      0.0113767145	      0.0532409295	      0.0465730608	      0.0604853352	      0.0233807452	      0.0297614645	      0.0358088367	      0.0101349172	      0.0102144260	      0.0101001484	      0.1240956762	      0.0675171330	      0.0100826257	      0.0100935382	      0.0100826725	      0.0100828796	      0.0100650920	      0.0707260444	      0.0103460550	      0.0103632215	      0.0108674950	      0.0101549123	      0.0100569457	      0.1144883160	      0.1252560099	      0.0102560008	      0.0137477238	      0.0468973841	      0.0303712348	      0.0100498070	      0.0100458067	      0.0100344243	      0.0100632234	      0.0101240048	      0.0100167538	      0.0100607948	      0.0131663674	      0.0114652690	      0.1141342173	      0.0389144388	      0.0632915252	      0.0335335242	      0.0423339609	      0.0116104287	      0.0100566448	      0.0101330184	      0.0439941732	      0.0777280795	      0.0271304727	      0.1130099870	     -2.7602819805	     95.8042699414	     -4.9407365065	     -4.0819343251	     -0.2068714528	     -6.8845592472
      0.3200000000	      0.0533634744	      0.0222041781	      0.0115548007	      0.0178105273	      0.0162354050	      0.0136141119	      0.0523852090	      0.0163305878	      0.0146825858	      0.0431964718	      0.0119267039	      0.0100974959	      0.0101074940	      0.0100942819	      0.0101087405	      0.0101138777	      0.0136919815	      0.0102424652	      0.0103616105	      0.0104841679	      0.0101424268	      0.0100589980	      0.0227211229	      0.0226919867	      0.0101273272	      0.0103348279	      0.0107016904	      0.0100457109	      0.0100316215	      0.0100295250	      0.0100235358	      0.0100289541	      0.0100086296	      0.0100306926	      0.0124750261	      0.0109652961	      0.0858757924	      0.0308708526	      0.0510238628	      0.0240820539	      0.0275927691	      0.0104465207	      0.0458171395	      0.0422292846	      0.0564395647	      0.0195246866	      0.0258748136	      0.0320200110	      0.0159021394	      0.0102689862	      0.0100895832	      0.1539965822	      0.0626653063	      0.0100320504	      0.0100374136	      0.0100336020	      0.0100339268	      0.0100270523	      0.0582527731	      0.0101333199	      0.0101973361	      0.0104132965	      0.0100695934	      0.0100241106	      0.0973598610	      0.1074853007	      0.0101065702	      0.0120554939	      0.0434662185	      0.0100541132	      0.0100144381	      0.0100133538	      0.0100098818	      0.0100294451	      0.0100549918	      0.0100062135	      0.0100227570	      0.0114039971	      0.0104979351	      0.1158548021	      0.0385783715	      0.0628204573	      0.0332017863	      0.0445447533	      0.0106399015	      0.0100212369	      0.0100541841	      0.0414255136	      0.0771125807	      0.0231295977	      0.1131351347	     -4.9996822307	     96.6865111418	     -4.7435421347	     -4.6618167811	      0.2354818075	     -9.4745724144
      0.3400000000	      0.0567036674	      0.0101450586	      0.0100500092	      0.0178184070	      0.0108152053	      0.0101905192	      0.0667627044	      0.0243095183	      0.0184585708	      0.0237920885	      0.0103436825	      0.0151389315	      0.0116555459	      0.0105308916	      0.0107862343	      0.0126601574	      0.0104877283	      0.0108255470	      0.0106774456	      0.0100726531	      0.0100555064	      0.0100740674	      0.0166764515	      0.0127997755	      0.0100670095	      0.0101482653	      0.0100728297	      0.0100535941	      0.0100595793	      0.0100555895	      0.0100452464	      0.0100266949	      0.0100097247	      0.0100346188	      0.0123550264	      0.0109492304	      0.0843889500	      0.0301661206	      0.0497814692	      0.0234658217	      0.0273457247	      0.0105087818	      0.0275087280	      0.0283471081	      0.0402522055	      0.0139703575	      0.0179189175	      0.0225682531	      0.0814779835	      0.0216986029	      0.0182358550	      0.1527860900	      0.0487783301	      0.0100466352	      0.0100539815	      0.0100486887	      0.0100487979	      0.0100386661	      0.0383125306	      0.0101806214	      0.0104019770	      0.0103726194	      0.0100944921	      0.0100350589	      0.0744611194	      0.0823977377	      0.0101560069	      0.0115282475	      0.0324186339	      0.0100315593	      0.0100150474	      0.0100140170	      0.0100102295	      0.0100374565	      0.0100683384	      0.0100070263	      0.0100259549	      0.0108979017	      0.0103996403	      0.1136558561	      0.0367070879	      0.0593585695	      0.0320500717	      0.0467856097	      0.0108944073	      0.0100238496	      0.0100668145	      0.0380646560	      0.0748725632	      0.0191719639	      0.1106652593	     -8.6956584539	     97.2002225797	     -4.4923234808	     -5.4419930687	      0.7019169220	    -14.0444583089
      0.3600000000	      0.0658248149	      0.0100644639	      0.0100259777	      0.0201823290	      0.0109557242	      0.0100954862	      0.0770939491	      0.0287013198	      0.0228126575	      0.0140648729	      0.0102977919	      0.0325192273	      0.0234871752	      0.0149137809	      0.0180844011	      0.0338140081	      0.0105247619	      0.0124433650	      0.0113091485	      0.0100401772	      0.0100334391	      0.0100707200	      0.0118888956	      0.0105204944	      0.0100432907	      0.0100965681	      0.0100401210	      0.0100534335	      0.0101754527	      0.0101634924	      0.0101355646	      0.0100218394	      0.0100091743	      0.0100329810	      0.0134870020	      0.0119089315	      0.0819106210	      0.0290214189	      0.0476693668	      0.0229436145	      0.0283929853	      0.0112600425	      0.0100314254	      0.0100762738	      0.0102411713	      0.0101255293	      0.0101822555	      0.0102988926	      0.1498882880	      0.0580006371	      0.0900575802	      0.1214549756	      0.0207869170	      0.0294079622	      0.0130522951	      0.0115501322	      0.0104357522	      0.0101046677	      0.0104698936	      0.0139459031	      0.0236063783	      0.0101234250	      0.0100993823	      0.0101481951	      0.0492029947	      0.0521771847	      0.0205618531	      0.0130512209	      0.0115658590	      0.0100207150	      0.0100159954	      0.0100150302	      0.0100108265	      0.0100337142	      0.0100614003	      0.0100069076	      0.0100259275	      0.0115139402	      0.0107167090	      0.1055164619	      0.0323622201	      0.0515719031	      0.0292588102	      0.0476425546	      0.0125505694	      0.0100229124	      0.0100707842	      0.0360951230	      0.0712555254	      0.0188174060	      0.1047825740	    -13.2896190847	     96.9900413368	     -3.1275337965	     -7.1771727500	      0.9577676026	    -20.8572600236
      0.3800000000	      0.0792169535	      0.0100416611	      0.0100176709	      0.0224086135	      0.0104494470	      0.0100707031	      0.0898253668	      0.0329949888	      0.0228035766	      0.0112518271	      0.0102188173	      0.0490525237	      0.0364537814	      0.0220025559	      0.0272979075	      0.0509099596	      0.0103354186	      0.0135190980	      0.0111807662	      0.0100294831	      0.0100275437	      0.0100845138	      0.0109167021	      0.0101012476	      0.0100333882	      0.0100787413	      0.0100282053	      0.0100680480	      0.0110903525	      0.0110568304	      0.0109613171	      0.0100216351	      0.0100093605	      0.0100333762	      0.0132533340	      0.0118464597	      0.0799683524	      0.0278178305	      0.0454517035	      0.0221144648	      0.0280068191	      0.0114640812	      0.0100621659	      0.0100836826	      0.0101219201	      0.0101267997	      0.0101341936	      0.0101594836	      0.2336547649	      0.0909823656	      0.1551381529	      0.1139442463	      0.0116397025	      0.0675270421	      0.0416801708	      0.0411655510	      0.0301320193	      0.0180070315	      0.0101174106	      0.0182257747	      0.0348129748	      0.0101323830	      0.0102009319	      0.0287641188	      0.0173611288	      0.0171778783	      0.0313680915	      0.0125408739	      0.0104833664	      0.0100154987	      0.0100157821	      0.0100149283	      0.0100107089	      0.0100544592	      0.0100981884	      0.0100078705	      0.0100296909	      0.0110852503	      0.0106175098	      0.0929886666	      0.0269570944	      0.0420522004	      0.0253971104	      0.0447126623	      0.0129507128	      0.0100250336	      0.0100605267	      0.0378693871	      0.0665049370	      0.0255314409	      0.0940701888	    -17.5425784304	     95.7417664190	     -0.6377230986	     -8.8372984961	      1.0406053841	    -29.0732044139
      0.4000000000	      0.0967427812	      0.0100261139	      0.0100112426	      0.0280277075	      0.0105688470	      0.0100397130	      0.1031561472	      0.0369859943	      0.0208868940	      0.0125418296	      0.0103197169	      0.0594676819	      0.0436153796	      0.0253354217	      0.0312773497	      0.0598735119	      0.0105881468	      0.0161837443	      0.0117808019	      0.0100178605	      0.0100162506	      0.0100533165	      0.0147717569	      0.0104972169	      0.0100211290	      0.0100474112	      0.0100179691	      0.0100796478	      0.0123329632	      0.0122837105	      0.0121485443	      0.0100231449	      0.0100090582	      0.0100380170	      0.0147185307	      0.0131407173	      0.0771284953	      0.0273745107	      0.0433392772	      0.0226818762	      0.0289299984	      0.0129919958	      0.0108448270	      0.0103627985	      0.0101162135	      0.0110902722	      0.0108736002	      0.0106539089	      0.3018425954	      0.1160030034	      0.2003184033	      0.1191131374	      0.0109304558	      0.0604902288	      0.0430620058	      0.0453053666	      0.0389967820	      0.0378311611	      0.0101660642	      0.0180958368	      0.0393295822	      0.0107304874	      0.0124056900	      0.0479416895	      0.0107767254	      0.0105115904	      0.0242841630	      0.0122441648	      0.0102358379	      0.0100123979	      0.0100143352	      0.0100135654	      0.0100098810	      0.0110143117	      0.0109608124	      0.0100131514	      0.0100401219	      0.0120933825	      0.0113237063	      0.0822725556	      0.0251725242	      0.0369936614	      0.0242462320	      0.0390135787	      0.0143297462	      0.0100286126	      0.0100451208	      0.0442643892	      0.0604034739	      0.0416193685	      0.0781016649	    -18.7982755086	     93.8284242075	      1.9580157908	     -8.0095560853	      1.4191158610	    -34.8983174254
      0.4200000000	      0.1197131854	      0.0100244019	      0.0100104521	      0.0331959727	      0.0101736931	      0.0100448553	      0.1096100303	      0.0363846306	      0.0126108116	      0.0112283426	      0.0101571931	      0.0587218402	      0.0426429934	      0.0198034874	      0.0272325004	      0.0613363479	      0.0102391822	      0.0140289277	      0.0103533759	      0.0100167042	      0.0100146556	      0.0100270658	      0.0179002042	      0.0104705223	      0.0100212012	      0.0100513253	      0.0100173779	      0.0100472458	      0.0110088439	      0.0109864883	      0.0109258775	      0.0100200878	      0.0100100404	      0.0100366703	      0.0132223090	      0.0117983362	      0.0762366113	      0.0266297040	      0.0433539338	      0.0210733378	      0.0266418985	      0.0113136829	      0.0144619579	      0.0138293935	      0.0151113155	      0.0115595700	      0.0115815715	      0.0116770888	      0.3695996832	      0.1389806563	      0.2404529132	      0.1353227747	      0.0102829875	      0.0102360023	      0.0119708974	      0.0148254907	      0.0173955275	      0.0296609573	      0.0101204873	      0.0106406518	      0.0326936417	      0.0199928012	      0.0344085506	      0.0383759125	      0.0100923764	      0.0100894433	      0.0105446434	      0.0108125957	      0.0112093988	      0.0100103359	      0.0100121417	      0.0100114278	      0.0100086945	      0.0153348313	      0.0114224339	      0.0100103525	      0.0100361293	      0.0119835700	      0.0110036513	      0.0798943256	      0.0260817516	      0.0412851780	      0.0235907297	      0.0302729530	      0.0114949718	      0.0100349395	      0.0100324583	      0.0549580440	      0.0531811546	      0.0664199635	      0.0573527348	    -18.3677206957	     91.1824359365	      4.2464975874	     -4.1414320257	      3.0154812191	    -39.6438402149
      0.4400000000	      0.1467334829	      0.0100204073	      0.0100094771	      0.0422763133	      0.0106954283	      0.0100361545	      0.1068900042	      0.0321887322	      0.0111302750	      0.0191499664	      0.0107469669	      0.0391262493	      0.0255446581	      0.0125155926	      0.0151342329	      0.0410274041	      0.0115069863	      0.0146313744	      0.0107616909	      0.0100143288	      0.0100125071	      0.0100251507	      0.0375925256	      0.0189527534	      0.0100212916	      0.0100534815	      0.0100159826	      0.0100539641	      0.0103148028	      0.0102883324	      0.0102305591	      0.0100181249	      0.0100071486	      0.0100160063	      0.0152252716	      0.0136354750	      0.0733924783	      0.0275619257	      0.0441267902	      0.0220826197	      0.0265476393	      0.0129947249	      0.0431540712	      0.0750663266	      0.1207821531	      0.0174431010	      0.0271408772	      0.0425906431	      0.3888953747	      0.1315472376	      0.2303967596	      0.2182849405	      0.0340617491	      0.0100240724	      0.0100351496	      0.0100367993	      0.0100394567	      0.0100398604	      0.0149887732	      0.0101195472	      0.0133721156	      0.0676752751	      0.0607605726	      0.0100379175	      0.0108635634	      0.0117677717	      0.0125050896	      0.0205791707	      0.0726761317	      0.0100094082	      0.0100076141	      0.0100070734	      0.0100055966	      0.0428549160	      0.0151750194	      0.0100062191	      0.0100227079	      0.0219085263	      0.0165262826	      0.1283135559	      0.0422514463	      0.0684041830	      0.0374607306	      0.0313498157	      0.0119384940	      0.0100586713	      0.0100288296	      0.0681512354	      0.0451128920	      0.0964981930	      0.0335155674	    -15.8936233977	     88.7880626750	      6.6068569741	      1.5460601009	      5.6762337148	    -40.9161026094
      0.4600000000	      0.1813169255	      0.0114352327	      0.0100531322	      0.0562545554	      0.0366878116	      0.0111933630	      0.0802150155	      0.0167011532	      0.0101697717	      0.0713210619	      0.0154021235	      0.0100391360	      0.0100469979	      0.0100406283	      0.0100477164	      0.0100587124	      0.0336958584	      0.0101488979	      0.0101401793	      0.0100578816	      0.0100282928	      0.0100169378	      0.0566482091	      0.0505594510	      0.0100337679	      0.0101016125	      0.0100668069	      0.0100290317	      0.0100191765	      0.0100177682	      0.0100142767	      0.0100685604	      0.0100102894	      0.0100356602	      0.0130665851	      0.0113465927	      0.0733432704	      0.0282717167	      0.0472940801	      0.0203745614	      0.0213025443	      0.0104305932	      0.0632984273	      0.1295120437	      0.2178172603	      0.0210822379	      0.0464212906	      0.0775530535	      0.3524086629	      0.1053525082	      0.1848678452	      0.2813848028	      0.0751949732	      0.0100118735	      0.0100175464	      0.0100184954	      0.0100199672	      0.0100185972	      0.0451973912	      0.0100521990	      0.0101204005	      0.1063128735	      0.0748853356	      0.0100214178	      0.0240077583	      0.0453678596	      0.0103745484	      0.0347629032	      0.1377478099	      0.0100070803	      0.0100048035	      0.0100044087	      0.0100035674	      0.0653362438	      0.0152890390	      0.0100041528	      0.0100154408	      0.0306053147	      0.0186756018	      0.1713214075	      0.0558295266	      0.0905690332	      0.0496484713	      0.0335968516	      0.0102488829	      0.0100876811	      0.0100193383	      0.0791398120	      0.0347224983	      0.1277280087	      0.0109668489	    -11.0297784845	     87.4469180337	      9.9415882473	      6.4225891873	      8.3607650791	    -36.4935639042
      0.4800000000	      0.2449984297	      0.0493418379	      0.0102424012	      0.0802842541	      0.0608779946	      0.0285823361	      0.0364007468	      0.0113497098	      0.0100822122	      0.1065092829	      0.0320834359	      0.0100273785	      0.0100301054	      0.0100271287	      0.0100301600	      0.0100299457	      0.0630358792	      0.0101897130	      0.0102389006	      0.0101084636	      0.0100280325	      0.0100120313	      0.1211544815	      0.1168811986	      0.0100435160	      0.0101954306	      0.0102228886	      0.0100315582	      0.0100121971	      0.0100113386	      0.0100088654	      0.0117325281	      0.0100106577	      0.0100349361	      0.0166664134	      0.0143556543	      0.0734508870	      0.0306381553	      0.0510831197	      0.0225843759	      0.0215128797	      0.0117175547	      0.0719128929	      0.1460148849	      0.2458991261	      0.0253898210	      0.0533040611	      0.0883594331	      0.2879614510	      0.0772032230	      0.1364347457	      0.2806804655	      0.0884273559	      0.0100104485	      0.0100152408	      0.0100159324	      0.0100170829	      0.0100155922	      0.0618230182	      0.0100475876	      0.0101077636	      0.1168188586	      0.0758454911	      0.0100177653	      0.0420303161	      0.0670505813	      0.0112484972	      0.0396432631	      0.1564795247	      0.0100075152	      0.0100046484	      0.0100042499	      0.0100034613	      0.0633084563	      0.0168776483	      0.0100040786	      0.0100152758	      0.0313929314	      0.0206882571	      0.1736272250	      0.0569991560	      0.0925490364	      0.0508407533	      0.0341179930	      0.0108788645	      0.0186465217	      0.0100155113	      0.0813777281	      0.0218110580	      0.1579955500	      0.0100173885	     -4.8867065348	     86.9107018835	     14.2237214333	      8.5045531035	     10.2465700767	    -27.8391992120
      0.5000000000	      0.2703049604	      0.0767444973	      0.0114142033	      0.0968886037	      0.0792026753	      0.0489685479	      0.0100281298	      0.0100504568	      0.0100190621	      0.1034185246	      0.0528419278	      0.0100268661	      0.0100250404	      0.0100223261	      0.0100236257	      0.0100201781	      0.1008438765	      0.0102054268	      0.0101725382	      0.0101225972	      0.0100194620	      0.0100082937	      0.2252796411	      0.2241685886	      0.0100620425	      0.0103432692	      0.0110074328	      0.0271685421	      0.0100148520	      0.0100139594	      0.0100107544	      0.0107814071	      0.0100101309	      0.0100334494	      0.0179931427	      0.0154515362	      0.0716298747	      0.0315861392	      0.0525731054	      0.0234661328	      0.0205328883	      0.0118919387	      0.0694968436	      0.1257086315	      0.2070438874	      0.0252971487	      0.0475767722	      0.0761709526	      0.2244565474	      0.0568736347	      0.1001968850	      0.2373493578	      0.0772019162	      0.0100123281	      0.0100177685	      0.0100184180	      0.0100197928	      0.0100180544	      0.0572236748	      0.0100541862	      0.0101196605	      0.0973133991	      0.0582172163	      0.0100200341	      0.0449440227	      0.0662516078	      0.0108510920	      0.0328517827	      0.1312003802	      0.0100094581	      0.0100056639	      0.0100052014	      0.0100042079	      0.0451496310	      0.0150408071	      0.0100047772	      0.0100175733	      0.0257274666	      0.0182161011	      0.1453338414	      0.0484262954	      0.0786158205	      0.0434111307	      0.0315092233	      0.0113081943	      0.0265659990	      0.0100152630	      0.0847496046	      0.0196326847	      0.1662424431	      0.0100580342	      1.7129629186	     86.7168800141	     17.8426274175	      7.6474268870	     10.9722139255	    -17.1724764176
      0.5200000000	      0.2207256720	      0.0759942732	      0.0148761143	      0.0925546684	      0.0797146380	      0.0573950106	      0.0100177425	      0.0100403137	      0.0100149736	      0.1333903762	      0.0707994382	      0.0100491054	      0.0100276923	      0.0100248392	      0.0100237481	      0.0100159104	      0.1192217522	      0.0111359292	      0.0105364623	      0.0100585323	      0.0100134009	      0.0100076289	      0.3327197305	      0.3358446410	      0.0101193236	      0.0106227636	      0.0141702326	      0.0923747006	      0.0100117275	      0.0100110810	      0.0100082663	      0.0128033390	      0.0100104239	      0.0100341258	      0.0180843556	      0.0153263822	      0.0797042984	      0.0330342399	      0.0550827647	      0.0250909384	      0.0218105994	      0.0119830343	      0.0554132905	      0.0832278195	      0.1311488147	      0.0213027806	      0.0336957032	      0.0504058048	      0.1763503535	      0.0473357174	      0.0808366283	      0.1740569532	      0.0518098807	      0.0100175936	      0.0100246031	      0.0100252290	      0.0100269938	      0.0100243847	      0.0384404387	      0.0101033698	      0.0104757842	      0.0609420587	      0.0319057825	      0.0100264959	      0.0376010951	      0.0511196471	      0.0108300839	      0.0214878436	      0.0822229669	      0.0100127734	      0.0100077517	      0.0100071880	      0.0100057227	      0.0203868299	      0.0124464208	      0.0100071143	      0.0100250082	      0.0177538349	      0.0143620847	      0.1046957521	      0.0363235214	      0.0588399938	      0.0326279861	      0.0289164239	      0.0120048491	      0.0235276091	      0.0100157565	      0.0779021180	      0.0187276002	      0.1537178249	      0.0100444491	      8.3778067212	     86.8681291801	     18.3580892375	      5.0104253359	     10.3745102597	     -6.3672973971
      0.5400000000	      0.0959367076	      0.0367556294	      0.0255185168	      0.0636484137	      0.0571929312	      0.0460661151	      0.0100137598	      0.0100323342	      0.0100127326	      0.1477918205	      0.0786741657	      0.0180370417	      0.0100413689	      0.0100343036	      0.0100289777	      0.0100156359	      0.1141095848	      0.0162087754	      0.0110078556	      0.0100242149	      0.0100096232	      0.0100073425	      0.4070791141	      0.4141649451	      0.0101887955	      0.0103584115	      0.0311958978	      0.1428265809	      0.0100118835	      0.0100112435	      0.0100081407	      0.0105371162	      0.0100082670	      0.0100290955	      0.0137854101	      0.0114457639	      0.0865025635	      0.0318490404	      0.0528198076	      0.0254442750	      0.0242440505	      0.0104014710	      0.0278910851	      0.0288905719	      0.0398856600	      0.0126132358	      0.0148677048	      0.0182216463	      0.1335192673	      0.0430971294	      0.0689376955	      0.0981816308	      0.0201003052	      0.0100546387	      0.0100718574	      0.0100705109	      0.0100755744	      0.0100682150	      0.0134072765	      0.0101798557	      0.0105558352	      0.0171643789	      0.0107193792	      0.0100658981	      0.0229311400	      0.0272479138	      0.0102135952	      0.0111166021	      0.0248256614	      0.0100211676	      0.0100153161	      0.0100143476	      0.0100111746	      0.0100432024	      0.0100753787	      0.0100072286	      0.0100259869	      0.0122085655	      0.0107939663	      0.0935171304	      0.0313649527	      0.0508339412	      0.0287273722	      0.0297346754	      0.0104412837	      0.0101168072	      0.0100210135	      0.0680870904	      0.0277014718	      0.1177571034	      0.0103005390	     14.4825227711	     87.8471238151	     14.1912599666	      1.8037441359	      8.3197617768	      2.7451148930
      0.5600000000	      0.0100874384	      0.0109441227	      0.0308330997	      0.0254246188	      0.0262595376	      0.0277219621	      0.0100129886	      0.0100324338	      0.0100135133	      0.1374642390	      0.0744879878	      0.1192305360	      0.0101121837	      0.0100722106	      0.0100448808	      0.0100173258	      0.0902374773	      0.0362527198	      0.0278211982	      0.0100244412	      0.0100104466	      0.0100091896	      0.4126478285	      0.4226972393	      0.0587581554	      0.0188593472	      0.0525209495	      0.1697047072	      0.0100132246	      0.0100125040	      0.0100089476	      0.0100380671	      0.0100069254	      0.0100256730	      0.0138733801	      0.0120989531	      0.0989036420	      0.0319129267	      0.0508256462	      0.0290954048	      0.0365806688	      0.0124551876	      0.0100084461	      0.0100469627	      0.0101185216	      0.0101697167	      0.0101896568	      0.0102361805	      0.0854159613	      0.0367638030	      0.0563618495	      0.0429235238	      0.0118456037	      0.0687562043	      0.0397995507	      0.0360517324	      0.0259734484	      0.0156259776	      0.0102262726	      0.0194777653	      0.0218701406	      0.0101566218	      0.0102607219	      0.0191493616	      0.0245785014	      0.0240696702	      0.0229446119	      0.0127464166	      0.0105309415	      0.0100372406	      0.0100319335	      0.0100301431	      0.0100229728	      0.0100203271	      0.0100402926	      0.0100065770	      0.0100247262	      0.0139805917	      0.0120670653	      0.1018967371	      0.0323590931	      0.0513129716	      0.0309954412	      0.0363182722	      0.0122288191	      0.0100385612	      0.0100299164	      0.0578345846	      0.0494303854	      0.0765649874	      0.0473984427	     19.1252173855	     89.8428771475	      6.1765982958	     -1.6909461087	      5.1306519662	      8.7754580423
      0.5800000000	      0.0100189259	      0.0100647652	      0.0384492127	      0.0101353146	      0.0103854433	      0.0130005574	      0.0100126128	      0.0100371742	      0.0100156434	      0.1145406190	      0.0649919229	      0.2391576748	      0.0532654383	      0.0428197836	      0.0109036178	      0.0100217472	      0.0543006424	      0.0601233181	      0.0546947942	      0.0100254728	      0.0100125591	      0.0100150009	      0.4027402126	      0.4165722652	      0.1548350518	      0.0420266178	      0.0797640741	      0.1984383189	      0.0100168025	      0.0100158162	      0.0100113647	      0.0100255217	      0.0100057911	      0.0100228245	      0.0128957112	      0.0115056979	      0.1175987087	      0.0337645302	      0.0521945008	      0.0341628311	      0.0491978658	      0.0136995624	      0.0100283768	      0.0100497890	      0.0100769115	      0.0100960372	      0.0101024039	      0.0101227907	      0.0400519542	      0.0256322888	      0.0403709965	      0.0251902387	      0.0117923767	      0.1266642760	      0.0761517934	      0.0737677236	      0.0503973406	      0.0221474132	      0.0101436487	      0.0314764079	      0.0281300130	      0.0101054946	      0.0102633550	      0.0493358775	      0.0328130848	      0.0330431808	      0.0631522362	      0.0163383480	      0.0105242672	      0.0100655978	      0.0100758874	      0.0100695028	      0.0100447305	      0.0100170449	      0.0100331427	      0.0100061499	      0.0100242680	      0.0142008877	      0.0122575041	      0.1073007637	      0.0323422861	      0.0503915211	      0.0319073811	      0.0388912178	      0.0127455784	      0.0100247325	      0.0100497940	      0.0469234045	      0.0708416015	      0.0416603743	      0.0947008811	     22.2185980266	     92.1605767847	     -2.6882483758	     -5.6479841512	      2.0642282605	     12.6746667624
      0.6000000000	      0.0100131491	      0.0100420040	      0.0536147358	      0.0100621487	      0.0100849499	      0.0104223651	      0.0100120442	      0.0100381843	      0.0100168450	      0.0952222217	      0.0611224659	      0.2854200677	      0.0897081536	      0.0834559411	      0.0208133242	      0.0100243177	      0.0352823893	      0.0696229398	      0.0674601698	      0.0100267635	      0.0100148680	      0.0100220262	      0.3820186718	      0.3988304694	      0.2115092128	      0.0589584161	      0.1018633757	      0.2306448530	      0.0100212928	      0.0100199024	      0.0100145271	      0.0100160909	      0.0100049271	      0.0100188678	      0.0114504056	      0.0105433386	      0.1366671499	      0.0371799629	      0.0569809973	      0.0403705295	      0.0583200878	      0.0129550326	      0.0100205075	      0.0100399781	      0.0100632998	      0.0100644456	      0.0100681186	      0.0100773233	      0.0107404589	      0.0149508829	      0.0239247831	      0.0146522283	      0.0112936962	      0.1555487394	      0.0941118354	      0.0942356308	      0.0614671669	      0.0195925180	      0.0100933975	      0.0384093357	      0.0301492759	      0.0100722485	      0.0101653662	      0.0706262016	      0.0379345688	      0.0398457707	      0.0987368023	      0.0209767109	      0.0104124120	      0.0108980469	      0.0102805802	      0.0102666572	      0.0101992904	      0.0100156441	      0.0100322430	      0.0100064827	      0.0100247325	      0.0134199762	      0.0115038583	      0.1088018291	      0.0314063728	      0.0489277436	      0.0313684111	      0.0375826526	      0.0117189592	      0.0100193371	      0.0100942911	      0.0400096095	      0.0875524816	      0.0170577432	      0.1332303862	     22.2498499807	     93.9318632490	     -9.4356265843	     -9.1739095131	      0.1284386146	     14.2266571855
      0.6200000000	      0.0100113111	      0.0100379724	      0.0654116582	      0.0100489341	      0.0100676534	      0.0103642297	      0.0100119044	      0.0100378858	      0.0100179239	      0.0711915266	      0.0582417342	      0.2828556784	      0.0976419660	      0.0942168593	      0.0287302312	      0.0100263840	      0.0254948339	      0.0690578474	      0.0667343908	      0.0100315264	      0.0100191774	      0.0100345215	      0.3439645794	      0.3626190022	      0.2386242445	      0.0684973930	      0.1143514051	      0.2605219732	      0.0100300461	      0.0100278906	      0.0100206996	      0.0100122434	      0.0100043229	      0.0100165286	      0.0121671702	      0.0108323156	      0.1491222693	      0.0405135565	      0.0618313086	      0.0454782999	      0.0623496260	      0.0135008783	      0.0100185602	      0.0100398385	      0.0100936169	      0.0100587268	      0.0100648436	      0.0100815592	      0.0100740833	      0.0114388023	      0.0128739786	      0.0138425870	      0.0132378969	      0.1477761846	      0.0870763727	      0.0885171846	      0.0529362575	      0.0128056275	      0.0101022033	      0.0373036323	      0.0275487793	      0.0101015136	      0.0104808395	      0.0662888006	      0.0452234486	      0.0492021493	      0.1130545910	      0.0260514337	      0.0120303292	      0.0273826415	      0.0109581291	      0.0109289918	      0.0107634219	      0.0100157316	      0.0100333427	      0.0100065959	      0.0100257070	      0.0146699080	      0.0124196532	      0.1065053142	      0.0312623459	      0.0486462589	      0.0307311087	      0.0358412472	      0.0122748039	      0.0100178362	      0.0127104904	      0.0325661688	      0.0898157164	      0.0104303095	      0.1516030563	     18.9981337107	     94.4381718359	    -12.7172094841	    -10.4162291054	     -0.6230531827	     14.4926078418
      0.6400000000	      0.0100107130	      0.0100371348	      0.0719460056	      0.0100429981	      0.0100586348	      0.0102306863	      0.0100123472	      0.0100386929	      0.0100204699	      0.0376860431	      0.0505867829	      0.2499187524	      0.0926966730	      0.0935806516	      0.0313046874	      0.0100313919	      0.0168715019	      0.0616299758	      0.0574646642	      0.0100427738	      0.0100306837	      0.0101208618	      0.2787424843	      0.2978245669	      0.2465690509	      0.0722660658	      0.1168849855	      0.2715505933	      0.0100757902	      0.0100692388	      0.0100511837	      0.0100108345	      0.0100042462	      0.0100161864	      0.0126830707	      0.0109709000	      0.1500318044	      0.0407173101	      0.0620098533	      0.0463822578	      0.0592553932	      0.0130616240	      0.0100208968	      0.0100482317	      0.0102541907	      0.0100649641	      0.0100731954	      0.0101039155	      0.0100595335	      0.0104388524	      0.0104587028	      0.0163745764	      0.0160405033	      0.1140737370	      0.0625122732	      0.0631413064	      0.0320737929	      0.0104213336	      0.0101648575	      0.0301187421	      0.0216692346	      0.0101613624	      0.0106268100	      0.0397795399	      0.0528800174	      0.0580754463	      0.1013774624	      0.0259090612	      0.0154604370	      0.0417648063	      0.0104208711	      0.0104001294	      0.0102964216	      0.0100166437	      0.0100347927	      0.0100068173	      0.0100262148	      0.0154688129	      0.0129063255	      0.1034500040	      0.0318787517	      0.0503075468	      0.0301288366	      0.0330042553	      0.0120899200	      0.0100193421	      0.0151444782	      0.0280286985	      0.0821509423	      0.0102328158	      0.1397655862	     12.9218953240	     93.6176772735	    -12.6127095994	     -8.5067391031	     -0.9102100418	     13.6008455656
      0.6600000000	      0.0100110473	      0.0100384892	      0.0691699059	      0.0100417229	      0.0100562210	      0.0101318495	      0.0100131325	      0.0100396586	      0.0100238629	      0.0108365886	      0.0407647813	      0.2014677908	      0.0792004683	      0.0843852279	      0.0285340699	      0.0100395432	      0.0112157753	      0.0507252813	      0.0431698988	      0.0100605982	      0.0100577635	      0.0110363881	      0.2084580772	      0.2265932186	      0.2357786179	      0.0700041726	      0.1088626839	      0.2670701513	      0.0110270903	      0.0110105014	      0.0109459975	      0.0100107984	      0.0100045823	      0.0100174347	      0.0119202763	      0.0105849439	      0.1410631434	      0.0379900514	      0.0578210559	      0.0432446932	      0.0510247538	      0.0112899733	      0.0100296715	      0.0100672884	      0.0105546066	      0.0100852527	      0.0100985070	      0.0101447629	      0.0100540877	      0.0101519139	      0.0101172827	      0.0208268853	      0.0183874376	      0.0755316765	      0.0334721543	      0.0313351357	      0.0127276878	      0.0101023672	      0.0103171170	      0.0213824773	      0.0147429750	      0.0101707097	      0.0102644569	      0.0116494052	      0.0646837803	      0.0704615667	      0.0772277944	      0.0219559209	      0.0177725368	      0.0469858467	      0.0101028475	      0.0100975980	      0.0100715139	      0.0100180031	      0.0100360765	      0.0100069781	      0.0100256380	      0.0146152420	      0.0119432800	      0.1012527742	      0.0326809161	      0.0526665905	      0.0292935667	      0.0291245375	      0.0108819307	      0.0100247122	      0.0120280889	      0.0222588858	      0.0646513660	      0.0103041607	      0.1086440817	      6.3600022101	     92.0450443821	     -9.6348656531	     -4.8834039248	     -0.9634145298	     12.3563805545
      0.6800000000	      0.0100133064	      0.0100450251	      0.0521617354	      0.0100484830	      0.0100646152	      0.0101342184	      0.0100151697	      0.0100438405	      0.0100279025	      0.0102168146	      0.0352740790	      0.1396476451	      0.0523326777	      0.0567938931	      0.0144583868	      0.0100436136	      0.0111181172	      0.0370012836	      0.0266969094	      0.0100755578	      0.0100783008	      0.0106633736	      0.1557542480	      0.1710803831	      0.1894784201	      0.0575829312	      0.0861545543	      0.2332930651	      0.0147837576	      0.0154258990	      0.0181118131	      0.0100115378	      0.0100051050	      0.0100193571	      0.0126943789	      0.0108310907	      0.1272222755	      0.0351321563	      0.0539380972	      0.0386936938	      0.0428253324	      0.0109113545	      0.0100419128	      0.0101111271	      0.0114534641	      0.0101404844	      0.0101661871	      0.0103076777	      0.0100462763	      0.0101059746	      0.0100646090	      0.0325025624	      0.0239690097	      0.0410084829	      0.0118831573	      0.0107713284	      0.0101825168	      0.0100612242	      0.0138138260	      0.0154365784	      0.0116883001	      0.0101496674	      0.0100997903	      0.0100901159	      0.0839064178	      0.0895068290	      0.0436529775	      0.0167488484	      0.0185899552	      0.0470109766	      0.0100494255	      0.0100469744	      0.0100346359	      0.0100196587	      0.0100393297	      0.0100071166	      0.0100259125	      0.0150355666	      0.0121634675	      0.0987780535	      0.0331665253	      0.0539641750	      0.0286575573	      0.0279135035	      0.0106728963	      0.0100343648	      0.0101216716	      0.0248866661	      0.0497572929	      0.0177906047	      0.0692124434	      1.1693954890	     90.6641993985	     -4.6942333061	     -1.8777356112	     -0.6340208235	     10.4663823797
      0.7000000000	      0.0100206891	      0.0100638741	      0.0249096618	      0.0100735783	      0.0100908849	      0.0103955466	      0.0100177447	      0.0100477499	      0.0100304674	      0.0104514688	      0.0324379784	      0.0680023980	      0.0172787103	      0.0155500939	      0.0105138851	      0.0100541172	      0.0185399851	      0.0220349872	      0.0135986279	      0.0101079941	      0.0100997049	      0.0101717857	      0.1208617925	      0.1310321005	      0.0998763407	      0.0332383332	      0.0488142772	      0.1932277749	      0.0144851202	      0.0147365120	      0.0155221694	      0.0100118718	      0.0100055355	      0.0100205908	      0.0144849085	      0.0120315663	      0.1144676665	      0.0341447786	      0.0534070431	      0.0351765201	      0.0374981398	      0.0117514673	      0.0100237474	      0.0103548673	      0.0143962582	      0.0103457555	      0.0109958967	      0.0121115328	      0.0100418949	      0.0100999169	      0.0100605808	      0.0410821019	      0.0275140052	      0.0197342654	      0.0104757700	      0.0102785277	      0.0101291225	      0.0100449647	      0.0225190988	      0.0142504165	      0.0118467329	      0.0103288827	      0.0101290757	      0.0100724124	      0.0946199679	      0.0997473655	      0.0195211484	      0.0152529544	      0.0190411384	      0.0409269581	      0.0100332664	      0.0100315289	      0.0100230691	      0.0100212187	      0.0100417844	      0.0100070019	      0.0100256531	      0.0161295342	      0.0133695992	      0.0963981871	      0.0331943277	      0.0540023392	      0.0282698641	      0.0287249606	      0.0115978339	      0.0100504591	      0.0100587889	      0.0313179658	      0.0372568555	      0.0381673765	      0.0407714989	     -1.6995907217	     90.1639638784	      0.6301338343	     -0.5362586107	      0.0420756431	      7.7810010701
      0.7200000000	      0.0250803805	      0.0178290533	      0.0207405203	      0.0161986310	      0.0177736251	      0.0186688519	      0.0100226654	      0.0100502048	      0.0100261694	      0.0214704222	      0.0383191534	      0.0101117988	      0.0100643219	      0.0100526823	      0.0100490960	      0.0100345667	      0.0495703023	      0.0103101553	      0.0101364927	      0.0101704345	      0.0100528906	      0.0100276929	      0.1053442593	      0.1106126363	      0.0101445356	      0.0113742969	      0.0214257251	      0.1534633688	      0.0100561408	      0.0100519258	      0.0100426230	      0.0100153741	      0.0100062107	      0.0100226258	      0.0133724592	      0.0111947357	      0.1070351113	      0.0345267326	      0.0554438802	      0.0330877099	      0.0331307226	      0.0105765349	      0.0102466012	      0.0109460643	      0.0132764479	      0.0111899331	      0.0116704326	      0.0122556945	      0.0100477103	      0.0100935793	      0.0100509301	      0.0443923486	      0.0269403786	      0.0104169470	      0.0100922553	      0.0100825243	      0.0100747189	      0.0100480639	      0.0259614855	      0.0113439403	      0.0104706007	      0.0101704343	      0.0100656123	      0.0100399464	      0.0955536287	      0.0998740927	      0.0112141032	      0.0119250684	      0.0160982248	      0.0312617600	      0.0100354675	      0.0100336783	      0.0100250285	      0.0100231257	      0.0100453180	      0.0100075273	      0.0100271876	      0.0146649688	      0.0119725563	      0.0961013668	      0.0329311347	      0.0538855919	      0.0274302362	      0.0276294979	      0.0105868513	      0.0100584201	      0.0100371889	      0.0429056297	      0.0331171634	      0.0614613780	      0.0261975675	     -2.4394280711	     90.6772736614	      4.5063478227	     -0.0927798791	      0.6737693079	      4.5984584618
      0.7400000000	      0.0709016046	      0.0406534855	      0.0364993525	      0.0279802279	      0.0300406279	      0.0300825601	      0.0100292639	      0.0100588020	      0.0100282924	      0.0588021856	      0.0487030566	      0.0100489461	      0.0100482560	      0.0100400868	      0.0100399176	      0.0100306989	      0.0631083496	      0.0101878026	      0.0101382228	      0.0101834733	      0.0100514447	      0.0100237177	      0.1068090846	      0.1127596970	      0.0100845639	      0.0104717946	      0.0264652304	      0.1114794908	      0.0100402575	      0.0100367413	      0.0100287044	      0.0100186409	      0.0100065068	      0.0100233803	      0.0123603760	      0.0106754731	      0.1035076769	      0.0352909392	      0.0574883282	      0.0319655203	      0.0321833616	      0.0103851942	      0.0196018235	      0.0149536320	      0.0187979162	      0.0129953229	      0.0138445545	      0.0144101058	      0.0100540752	      0.0101030508	      0.0100525304	      0.0458387333	      0.0264942879	      0.0101415208	      0.0100907264	      0.0100733422	      0.0100707712	      0.0100490339	      0.0299027125	      0.0103832921	      0.0102701963	      0.0101632713	      0.0100625429	      0.0100360100	      0.0898043029	      0.0936934079	      0.0102103425	      0.0106646900	      0.0167365543	      0.0217377771	      0.0100351016	      0.0100332743	      0.0100248369	      0.0100236744	      0.0100463698	      0.0100076031	      0.0100274804	      0.0138306036	      0.0111597361	      0.0962708868	      0.0330747213	      0.0541902401	      0.0272147035	      0.0273355245	      0.0103872840	      0.0100560714	      0.0100284949	      0.0560352924	      0.0357874455	      0.0824623680	      0.0234222227	     -1.9959453406	     91.8836203611	      5.8671250221	      0.7966810142	      0.9125728311	      1.4458463731
      0.7600000000	      0.0718097975	      0.0455628450	      0.0458805884	      0.0283590756	      0.0317974892	      0.0335171151	      0.0100373563	      0.0100686118	      0.0100314911	      0.0883306192	      0.0565431918	      0.0100389104	      0.0100412635	      0.0100351685	      0.0100353462	      0.0100276988	      0.0676504657	      0.0101645453	      0.0101470734	      0.0103461410	      0.0100556154	      0.0100223840	      0.1105155941	      0.1179947270	      0.0100847073	      0.0112503396	      0.0333881826	      0.0768319833	      0.0100271628	      0.0100247835	      0.0100191123	      0.0100216901	      0.0100066071	      0.0100237245	      0.0127694899	      0.0111202757	      0.1022001041	      0.0355229151	      0.0581553502	      0.0311488228	      0.0350569655	      0.0107980589	      0.0354772741	      0.0241887015	      0.0270560611	      0.0170574005	      0.0180826694	      0.0186065328	      0.0100488021	      0.0100822278	      0.0100471404	      0.0464194548	      0.0253215880	      0.0101044001	      0.0100703497	      0.0100596260	      0.0100608817	      0.0100469199	      0.0307912550	      0.0103517435	      0.0102432186	      0.0104157445	      0.0100775143	      0.0100333497	      0.0809537573	      0.0845633499	      0.0101916626	      0.0111707695	      0.0192158175	      0.0130519554	      0.0100375363	      0.0100354983	      0.0100267006	      0.0100223628	      0.0100434542	      0.0100074679	      0.0100268986	      0.0144774648	      0.0119618131	      0.0961732732	      0.0335253506	      0.0550685485	      0.0272640922	      0.0288555142	      0.0107161281	      0.0100489175	      0.0100242331	      0.0670835163	      0.0412432968	      0.0980939732	      0.0267304049	     -1.4433715361	     93.3350822994	      5.0660156534	      2.6130983641	      0.7603450547	     -1.3179245344
      0.7800000000	      0.0536249677	      0.0403995233	      0.0479822393	      0.0231429767	      0.0278472026	      0.0316354363	      0.0100455734	      0.0100782773	      0.0100354714	      0.1065827239	      0.0607493856	      0.0100370917	      0.0100399116	      0.0100344904	      0.0100343456	      0.0100265827	      0.0661596600	      0.0101597385	      0.0101588863	      0.0103033088	      0.0100562096	      0.0100225225	      0.1129445051	      0.1218553625	      0.0100977453	      0.0120810911	      0.0377763115	      0.0495724442	      0.0100222522	      0.0100203653	      0.0100155142	      0.0100240081	      0.0100066584	      0.0100240798	      0.0123098828	      0.0109640466	      0.1032060980	      0.0355773261	      0.0582053229	      0.0307613838	      0.0381784683	      0.0110078470	      0.0541063232	      0.0337338657	      0.0328129382	      0.0208929171	      0.0217732027	      0.0218125753	      0.0107780375	      0.0104368220	      0.0101593405	      0.0598807119	      0.0227509548	      0.0100688643	      0.0100675807	      0.0100597103	      0.0100639990	      0.0100539252	      0.0281061020	      0.0102676889	      0.0104062161	      0.0108706844	      0.0101032165	      0.0100366451	      0.0654184295	      0.0683359044	      0.0101484164	      0.0108836437	      0.0192536189	      0.0100911180	      0.0100228832	      0.0100215809	      0.0100164208	      0.0100288063	      0.0100549628	      0.0100074489	      0.0100268637	      0.0144984865	      0.0119878151	      0.0964521669	      0.0340759617	      0.0561411294	      0.0273559618	      0.0293668642	      0.0107470807	      0.0100444538	      0.0100221344	      0.0743349474	      0.0458248388	      0.1079170927	      0.0304577307	     -1.5809340325	     94.7254013059	      3.5547017466	      4.6103767901	      0.4435328638	     -3.7263117780
      0.8000000000	      0.0421481439	      0.0378098156	      0.0503682655	      0.0215757353	      0.0263453611	      0.0311385393	      0.0100868505	      0.0101652119	      0.0100847638	      0.1192502670	      0.0633522084	      0.0100821922	      0.0100892398	      0.0100783123	      0.0100774324	      0.0100600769	      0.0645841393	      0.0103882309	      0.0104278483	      0.0112414153	      0.0101512365	      0.0100528953	      0.1124887389	      0.1225056521	      0.0102663019	      0.0152688389	      0.0413051732	      0.0255188154	      0.0100462498	      0.0100425209	      0.0100319371	      0.0100583732	      0.0100157430	      0.0100567120	      0.0136391898	      0.0121065420	      0.1048939127	      0.0362879943	      0.0588389783	      0.0313828473	      0.0429171834	      0.0132342930	      0.0670706844	      0.0378890298	      0.0312597118	      0.0248599886	      0.0249128810	      0.0238199226	      0.0219668846	      0.0129713418	      0.0111051563	      0.0591346555	      0.0211846377	      0.0101395081	      0.0101270188	      0.0101156507	      0.0101258699	      0.0101209364	      0.0265517504	      0.0107902319	      0.0114108398	      0.0134300552	      0.0104656073	      0.0100835104	      0.0513084296	      0.0531982899	      0.0104720068	      0.0121686824	      0.0184941469	      0.0101283668	      0.0100604181	      0.0100572782	      0.0100452055	      0.0100749826	      0.0101446346	      0.0100174245	      0.0100612735	      0.0162098652	      0.0137579529	      0.0955774398	      0.0346665013	      0.0566075738	      0.0280356819	      0.0313944385	      0.0124260991	      0.0101082490	      0.0100503565	      0.0777454790	      0.0475456606	      0.1129654546	      0.0313599246	     -2.8255688053	     95.9617684470	      2.7949178042	      5.6553698469	      0.0980983724	     -6.1293795186
      0.8200000000	      0.0428412141	      0.0398834901	      0.0533769672	      0.0215303930	      0.0263922977	      0.0315565105	      0.0156525163	      0.0118918786	      0.0105782166	      0.1497522710	      0.0619041648	      0.0101505842	      0.0101729883	      0.0101550843	      0.0101563895	      0.0101247379	      0.0574414860	      0.0106583742	      0.0113030546	      0.0124080223	      0.0103455392	      0.0101109308	      0.0984052554	      0.1083276727	      0.0104956997	      0.0159171376	      0.0422282729	      0.0103289413	      0.0100661228	      0.0100612324	      0.0100454833	      0.0101513368	      0.0100299106	      0.0101083432	      0.0137134543	      0.0123058925	      0.1071265092	      0.0369796189	      0.0595533746	      0.0320031535	      0.0464575582	      0.0141815933	      0.0679977297	      0.0340982836	      0.0219033520	      0.0247141649	      0.0238697603	      0.0217459683	      0.0371695669	      0.0156458860	      0.0129877764	      0.0498255223	      0.0182828185	      0.0102161390	      0.0102137300	      0.0102138040	      0.0102277506	      0.0101929278	      0.0226884756	      0.0111902634	      0.0119217354	      0.0139493615	      0.0109570208	      0.0101825215	      0.0354582654	      0.0361040566	      0.0107536454	      0.0123758361	      0.0157019298	      0.0101771323	      0.0101066333	      0.0101012308	      0.0100824610	      0.0101231895	      0.0102389035	      0.0100342112	      0.0101212455	      0.0166363005	      0.0142349719	      0.0947373005	      0.0346776682	      0.0562438907	      0.0280933946	      0.0319443259	      0.0130149497	      0.0102159143	      0.0100947709	      0.0778089649	      0.0462312197	      0.1139209295	      0.0291453551	     -5.2980500640	     97.0420573675	      3.1596787024	      5.4488974044	     -0.3145813721	     -9.0665655655
      0.8400000000	      0.0357474433	      0.0370491990	      0.0519890693	      0.0170485597	      0.0220391562	      0.0278268095	      0.0757415858	      0.0190722146	      0.0151304906	      0.1588374155	      0.0533794642	      0.0100953611	      0.0101146567	      0.0101050431	      0.0101066200	      0.0100863653	      0.0440824424	      0.0103765185	      0.0107704985	      0.0116661278	      0.0102475458	      0.0100789187	      0.0754248063	      0.0843404458	      0.0103485832	      0.0136147271	      0.0395532733	      0.0100793144	      0.0100356885	      0.0100332425	      0.0100242586	      0.0101126511	      0.0100183466	      0.0100669363	      0.0116508182	      0.0109149966	      0.1065395180	      0.0356250441	      0.0576081966	      0.0307900876	      0.0476264211	      0.0122907792	      0.0569476258	      0.0186517559	      0.0112951497	      0.0194990172	      0.0172216747	      0.0140868698	      0.0525760265	      0.0177547890	      0.0166833609	      0.0374054591	      0.0127138809	      0.0103392709	      0.0102788680	      0.0102422740	      0.0102601018	      0.0102240813	      0.0146713355	      0.0105598087	      0.0108995911	      0.0111112924	      0.0104609943	      0.0101626798	      0.0182616376	      0.0177008021	      0.0103132105	      0.0108266431	      0.0110527445	      0.0101351597	      0.0101063049	      0.0100996089	      0.0100801550	      0.0100638387	      0.0101256675	      0.0100215958	      0.0100773206	      0.0146928920	      0.0123871070	      0.0938237999	      0.0334485138	      0.0548051946	      0.0265234148	      0.0300253096	      0.0112631122	      0.0101351173	      0.0100587082	      0.0749042886	      0.0432899604	      0.1102294605	      0.0259517939	     -9.3109905698	     97.7436964660	      3.5996498003	      5.0611603331	     -0.8200361323	    -13.8174463815
      0.8600000000	      0.0174017099	      0.0166079104	      0.0199245469	      0.0133743296	      0.0143705617	      0.0154322863	      0.1506484899	      0.0515140473	      0.0775353753	      0.1396310039	      0.0298741357	      0.0101593448	      0.0101153759	      0.0101145274	      0.0101089741	      0.0100912084	      0.0181635371	      0.0102737082	      0.0138660043	      0.0110723410	      0.0102480758	      0.0100857172	      0.0446261288	      0.0489566982	      0.0101822469	      0.0121236061	      0.0181420502	      0.0100331617	      0.0100231638	      0.0100217632	      0.0100156602	      0.0100829460	      0.0100121820	      0.0100449493	      0.0112176562	      0.0106832603	      0.0991724543	      0.0317929771	      0.0509625688	      0.0281814464	      0.0477571010	      0.0129169522	      0.0556344619	      0.0101267640	      0.0100556903	      0.0182766098	      0.0114154152	      0.0101814363	      0.0681329980	      0.0259527180	      0.0221574859	      0.0159846244	      0.0105248399	      0.0261394850	      0.0189788708	      0.0136914370	      0.0155119162	      0.0252044862	      0.0107992966	      0.0124621694	      0.0117844363	      0.0100780725	      0.0100614530	      0.0101406620	      0.0126578280	      0.0110873675	      0.0100861167	      0.0101889593	      0.0100824812	      0.0100914446	      0.0101861297	      0.0101738122	      0.0101421491	      0.0100338482	      0.0100683573	      0.0100137481	      0.0100495102	      0.0145308048	      0.0123820322	      0.0912659604	      0.0319410764	      0.0523082572	      0.0254133969	      0.0295663522	      0.0113697562	      0.0100865932	      0.0100389627	      0.0694426031	      0.0412860621	      0.1012602284	      0.0261480879	    -14.3843421506	     97.6438190312	      2.7168489782	      5.6464317743	     -1.2037747996	    -20.9426445092
      0.8800000000	      0.0101613152	      0.0101434496	      0.0101688615	      0.0101670424	      0.0101833268	      0.0102048168	      0.2481847648	      0.0942738082	      0.1602780889	      0.1143900313	      0.0106477831	      0.0377440125	      0.0247805504	      0.0246066259	      0.0204151855	      0.0175076516	      0.0101355980	      0.0123873166	      0.0303093247	      0.0102134747	      0.0103273900	      0.0209604628	      0.0108194778	      0.0107347217	      0.0138410760	      0.0107438447	      0.0102980425	      0.0100150349	      0.0100159612	      0.0100150950	      0.0100108192	      0.0100673951	      0.0100085919	      0.0100319521	      0.0103727814	      0.0102568771	      0.0854142607	      0.0259341766	      0.0411082253	      0.0236858259	      0.0445660140	      0.0118027257	      0.0641879325	      0.0100545867	      0.0100230493	      0.0184401021	      0.0103118471	      0.0100917528	      0.0796366130	      0.0302496605	      0.0232418955	      0.0109152335	      0.0101901627	      0.0472497171	      0.0341850867	      0.0218800592	      0.0259192088	      0.0441645881	      0.0102421453	      0.0122222406	      0.0107490489	      0.0100374542	      0.0100334947	      0.0100809700	      0.0106468044	      0.0102341692	      0.0100423517	      0.0100944736	      0.0100365819	      0.0100565751	      0.0102965121	      0.0102839993	      0.0102508965	      0.0100198211	      0.0100400576	      0.0100086082	      0.0100312222	      0.0131997265	      0.0112917244	      0.0888063553	      0.0302260551	      0.0494633632	      0.0238914020	      0.0275795051	      0.0105469689	      0.0100480459	      0.0100267973	      0.0621316524	      0.0425079268	      0.0869948708	      0.0331976056	    -19.2526336264	     96.2566959842	      0.1904157528	      6.8504737110	     -1.3936932478	    -29.9314983786
      0.9000000000	      0.0121309252	      0.0110561536	      0.0105609965	      0.0117163578	      0.0113418140	      0.0110398302	      0.3384642692	      0.1283487147	      0.2206826699	      0.1204957819	      0.0105686604	      0.0331766945	      0.0296856494	      0.0327962765	      0.0344045823	      0.0474511052	      0.0101386272	      0.0134649200	      0.0367685273	      0.0127687983	      0.0191612408	      0.0482503122	      0.0100798326	      0.0100733547	      0.0123047831	      0.0112861979	      0.0105694834	      0.0100116662	      0.0100144396	      0.0100136612	      0.0100099609	      0.0117890753	      0.0100109903	      0.0100375730	      0.0113681532	      0.0109236570	      0.0720979002	      0.0228265154	      0.0341651029	      0.0216141408	      0.0379278752	      0.0136479003	      0.0773005772	      0.0100350183	      0.0100152283	      0.0231381694	      0.0105722659	      0.0100593858	      0.0899136153	      0.0338338077	      0.0198913635	      0.0129970771	      0.0103554431	      0.0637812591	      0.0440613684	      0.0275869979	      0.0315052913	      0.0520210349	      0.0105338911	      0.0160525061	      0.0122008838	      0.0100240673	      0.0100214093	      0.0100618344	      0.0164166698	      0.0114350402	      0.0100298045	      0.0100722380	      0.0100245490	      0.0100706698	      0.0109080583	      0.0108616593	      0.0107495593	      0.0100223219	      0.0100426621	      0.0100087902	      0.0100328345	      0.0149513853	      0.0130221027	      0.0847626671	      0.0289146100	      0.0466481095	      0.0235537901	      0.0283704984	      0.0120944686	      0.0100402617	      0.0100318884	      0.0543160284	      0.0477316396	      0.0693952565	      0.0477266433	    -20.9949211051	     93.8402893938	     -2.7748438089	      6.6765668167	     -1.6524555486	    -36.8962726267
      0.9200000000	      0.0245949527	      0.0176419062	      0.0163180092	      0.0114259455	      0.0113890305	      0.0114223215	      0.4282493220	      0.1615092113	      0.2791528667	      0.1444429124	      0.0101944157	      0.0101671010	      0.0114171548	      0.0155145733	      0.0220159032	      0.0458651379	      0.0100977686	      0.0103355869	      0.0364294973	      0.0272694126	      0.0470996910	      0.0517189961	      0.0100651644	      0.0100625106	      0.0105335709	      0.0104873962	      0.0107901451	      0.0100091319	      0.0100109895	      0.0100103372	      0.0100078825	      0.0244737818	      0.0100088218	      0.0100323473	      0.0117730780	      0.0108232769	      0.0814885527	      0.0256384799	      0.0408617754	      0.0233400298	      0.0289957891	      0.0108332310	      0.0947467540	      0.0100292264	      0.0100127090	      0.0272896787	      0.0101894312	      0.0100533381	      0.0953050859	      0.0340908500	      0.0118875272	      0.0119991496	      0.0101712307	      0.0724824091	      0.0478887954	      0.0265697490	      0.0311733073	      0.0540873546	      0.0102226144	      0.0149970813	      0.0105383328	      0.0100198654	      0.0100171567	      0.0100328792	      0.0253485904	      0.0126531148	      0.0100259589	      0.0100608484	      0.0100210766	      0.0100448013	      0.0101530898	      0.0101423439	      0.0101195446	      0.0100219853	      0.0100443990	      0.0100093743	      0.0100340940	      0.0134028462	      0.0115904660	      0.0833003131	      0.0278392159	      0.0453694231	      0.0220434700	      0.0259018652	      0.0107079378	      0.0100324839	      0.0100389483	      0.0477890493	      0.0554126595	      0.0524522723	      0.0660592475	    -21.0742814698	     90.4399255915	     -5.1289418662	      4.7824330038	     -2.6413902513	    -43.1911325201
      0.9400000000	      0.0350073646	      0.0481006601	      0.0708688578	      0.0152215214	      0.0187536038	      0.0249854087	      0.4621370607	      0.1686444755	      0.2932002833	      0.1858171354	      0.0137934041	      0.0100360421	      0.0100753205	      0.0101183179	      0.0102055406	      0.0107573450	      0.0103225079	      0.0102762505	      0.0254442225	      0.0547235245	      0.0685630837	      0.0134592210	      0.0100468586	      0.0100468026	      0.0128298277	      0.0149301225	      0.0368907057	      0.0100076561	      0.0100079881	      0.0100074222	      0.0100058802	      0.0426864536	      0.0100067407	      0.0100243936	      0.0191686425	      0.0152902656	      0.1070547016	      0.0350814877	      0.0561579742	      0.0316214385	      0.0278908278	      0.0120427467	      0.1152204596	      0.0100215885	      0.0100092960	      0.0335846868	      0.0104009778	      0.0100361203	      0.0981781660	      0.0332637029	      0.0116221574	      0.0146890679	      0.0105016619	      0.0697844015	      0.0455174152	      0.0225144459	      0.0275402845	      0.0542459568	      0.0108406770	      0.0174151745	      0.0113787351	      0.0100143347	      0.0100122476	      0.0100251509	      0.0335637424	      0.0179813957	      0.0100191577	      0.0100450251	      0.0100154147	      0.0100684081	      0.0108938619	      0.0108369518	      0.0107072037	      0.0100207780	      0.0100227336	      0.0100066878	      0.0100233180	      0.0157845771	      0.0138526940	      0.0810855252	      0.0282975655	      0.0448775479	      0.0232633523	      0.0277579585	      0.0128622296	      0.0100277219	      0.0100469303	      0.0443051654	      0.0622940240	      0.0411142364	      0.0814375052	    -18.8430320297	     87.8684863971	     -6.0771441388	      1.8410246914	     -3.8865695703	    -44.9165096319
      0.9600000000	      0.0313469796	      0.0654171512	      0.1104520344	      0.0121792051	      0.0234280516	      0.0390893831	      0.3787616512	      0.1299043007	      0.2176500289	      0.2250015250	      0.0375484336	      0.0100229691	      0.0100336633	      0.0100355642	      0.0100383493	      0.0100359887	      0.0111962427	      0.0100927175	      0.0106974229	      0.0548444105	      0.0401360970	      0.0100416141	      0.0121199741	      0.0211779566	      0.0104084257	      0.0181479485	      0.0696605731	      0.0100076751	      0.0100061019	      0.0100056187	      0.0100045244	      0.0541781705	      0.0100052884	      0.0100196183	      0.0233869359	      0.0144419753	      0.1346014797	      0.0431770282	      0.0697038217	      0.0388547561	      0.0275493266	      0.0102786867	      0.1351950540	      0.0100199484	      0.0100086511	      0.0373398865	      0.0101385821	      0.0100370081	      0.1049936724	      0.0321887765	      0.0102046433	      0.0103683233	      0.0101493385	      0.0655102182	      0.0466120106	      0.0188412189	      0.0271242632	      0.0647180265	      0.0101923771	      0.0124099851	      0.0101749699	      0.0100135346	      0.0100116658	      0.0100202127	      0.0262667125	      0.0105529019	      0.0100180857	      0.0100440926	      0.0100145481	      0.0100445564	      0.0110014779	      0.0111113552	      0.0115899230	      0.0100202777	      0.0100410929	      0.0100092997	      0.0100337036	      0.0125914308	      0.0108500565	      0.0839479330	      0.0285683710	      0.0467226205	      0.0220536200	      0.0251029768	      0.0104294497	      0.0100263762	      0.0100453375	      0.0450286995	      0.0652408282	      0.0393942489	      0.0876075423	    -13.9757267900	     87.7879597117	     -5.4817444182	     -0.5068192472	     -4.1506602917	    -38.7301301858
      0.9800000000	      0.0124355366	      0.0450605964	      0.0910989261	      0.0124995189	      0.0183021549	      0.0312777133	      0.1958050597	      0.0612311115	      0.0982941434	      0.1731377909	      0.0451797780	      0.0100274650	      0.0100356517	      0.0100358963	      0.0100368264	      0.0100307664	      0.0221951585	      0.0101090108	      0.0105230623	      0.0318243852	      0.0137424132	      0.0100340712	      0.0509377936	      0.0630655688	      0.0131138503	      0.0213228495	      0.0644632905	      0.0100119769	      0.0100078496	      0.0100072281	      0.0100058287	      0.0308215765	      0.0100065469	      0.0100237619	      0.0186256297	      0.0143381094	      0.1062781473	      0.0358174768	      0.0582020559	      0.0317508744	      0.0260265253	      0.0108331959	      0.1420455325	      0.0100175420	      0.0100076801	      0.0363294116	      0.0101101617	      0.0100322338	      0.1463884875	      0.0450837516	      0.0177359845	      0.0107181005	      0.0101317625	      0.0550080776	      0.0492328110	      0.0217148571	      0.0320890560	      0.0839570476	      0.0101384974	      0.0137439891	      0.0101798439	      0.0100123852	      0.0100110611	      0.0100205933	      0.0110825439	      0.0101107695	      0.0100163649	      0.0100402756	      0.0100129516	      0.0100337967	      0.0182950353	      0.0192154542	      0.0229657538	      0.0100194174	      0.0100402564	      0.0100092170	      0.0100333936	      0.0145630330	      0.0126191388	      0.0851433979	      0.0293904163	      0.0479508134	      0.0231850733	      0.0289872521	      0.0116030519	      0.0100275173	      0.0100393639	      0.0501518414	      0.0632981738	      0.0482715836	      0.0825907920	     -7.2516944843	     90.1350668472	     -3.1802060914	     -1.5744140065	     -2.7744369482	    -25.4975633711
      1.0000000000	      0.0100359973	      0.0103596376	      0.0301057445	      0.0101787853	      0.0104829382	      0.0124575471	      0.0100201963	      0.0100417861	      0.0100250205	      0.0686973043	      0.0642980476	      0.0101030755	      0.0100322603	      0.0100270660	      0.0100294904	      0.0100212013	      0.0422032721	      0.0113052105	      0.0101100348	      0.0102773298	      0.0100803765	      0.0100216688	      0.1590717250	      0.1750676190	      0.0484976288	      0.0301426575	      0.0496159461	      0.0966048627	      0.0100176661	      0.0100164275	      0.0100132807	      0.0100347890	      0.0100077314	      0.0100280994	      0.0153400595	      0.0129770241	      0.0893953125	      0.0304226303	      0.0489454930	      0.0272535383	      0.0269196177	      0.0115383613	      0.1398781794	      0.0100151666	      0.0100067549	      0.0307637862	      0.0100823129	      0.0100272929	      0.2094478694	      0.0662953823	      0.0625868974	      0.0103852887	      0.0101174770	      0.0441415076	      0.0571657214	      0.0301141819	      0.0438711496	      0.1152576967	      0.0100916875	      0.0132278763	      0.0102110694	      0.0100112768	      0.0100104527	      0.0100218146	      0.0100800571	      0.0100512617	      0.0100147732	      0.0100362109	      0.0100114219	      0.0100244551	      0.0332671250	      0.0356104461	      0.0453425846	      0.0100182580	      0.0100372124	      0.0100089722	      0.0100328165	      0.0144331350	      0.0126327195	      0.0873636951	      0.0298106585	      0.0481893488	      0.0238183549	      0.0311466855	      0.0122352578	      0.0100311424	      0.0100324122	      0.0580930831	      0.0580123088	      0.0641725497	      0.0699385201	      0.7610975234	     93.5074603985	      0.7014036538	     -2.0564234990	     -0.1160783604	     -8.2120343067
